GUID	ADDRESS	CITY	STATE	ZIP	COUNTRY
4581ec79-e6e6-49f5-92f3-ca46af6a8036	874 Namekagon Lane	Atlanta	Georgia	30375	United States
7ecc487a-aed4-4fab-b0c1-29eb3848b7f3	0778 Warrior Circle	Marietta	Georgia	30066	United States
72930e46-b763-4c2f-b4c2-e0edc9b89076	423 Carioca Hill	Sunnyvale	California	94089	United States
a96ddd3b-145c-478a-a5ea-842c9ea93f3c	1 Morning Court	Atlanta	Georgia	30356	United States
2d985826-2a23-4531-a52b-88e12b8f0e03	00039 Vernon Point	Amarillo	Texas	79165	United States
b4fb75bb-18bf-499d-bb79-0331768bc47a	7 Lawn Court	Morgantown	West Virginia	26505	United States
d6899156-c759-4680-9e33-d5004de1b586	46 Bluejay Park	Orlando	Florida	32868	United States
37b8ca7a-2ac6-458b-b6e4-723fdbaaf704	77260 Northwestern Circle	Tampa	Florida	33647	United States
abaaa102-b2cf-415d-aee6-0985849a354e	44912 Saint Paul Alley	Frankfort	Kentucky	40618	United States
d8908a95-ce20-477b-9ca1-2f0c5f24f0c7	4 Packers Drive	Dayton	Ohio	45470	United States
12e4d9de-d533-4655-8df6-e228e224b96c	9633 International Trail	Huntington	West Virginia	25711	United States
b50282d0-05d6-471a-b9bd-b214858f9f0c	2 Bayside Court	El Paso	Texas	88535	United States
f757ba5b-f57a-47f1-9d63-cc93223873cd	4442 Golf Course Circle	Los Angeles	California	90071	United States
d947c249-4989-4d9b-9ee0-f8528d704227	1675 Ridge Oak Avenue	Providence	Rhode Island	02912	United States
fa98e6b4-7fec-4f65-9b3d-f972a7b521a0	6332 1st Drive	Jacksonville	Florida	32236	United States
a881b532-f60a-497d-94e5-7f4861c95f5a	58 Reindahl Plaza	Pensacola	Florida	32511	United States
e1eebec5-ece1-4f37-b8d6-999075b43965	74 Utah Point	Los Angeles	California	90015	United States
f185b80a-d7c2-4ce5-b6ac-306e17630d2a	1147 Nobel Junction	Kansas City	Missouri	64187	United States
db294533-e96c-449a-84aa-af0178b79d86	0029 Kennedy Place	Irving	Texas	75062	United States
70d05a78-d252-4222-8092-5eee10ed6841	1922 Fulton Trail	Tulsa	Oklahoma	74116	United States
e5013547-06c7-42be-8b54-059a36d092b3	2362 Manley Circle	Chattanooga	Tennessee	37450	United States
c94627c2-b7a1-4329-a6c5-cb7c2fffa671	4 Alpine Alley	El Paso	Texas	79940	United States
6bc73383-7f9c-453a-ab57-6ffc19178be3	72 Caliangt Plaza	Long Beach	California	90847	United States
e21e2065-fa08-48c9-97a8-ed2d1bac999b	244 Lake View Junction	Knoxville	Tennessee	37931	United States
774df452-946a-4eea-ba16-82116125042a	60148 Northfield Parkway	Washington	District of Columbia	20238	United States
89e5000f-1c47-4c1c-895a-1c859e73fec4	52 Haas Plaza	Des Moines	Iowa	50347	United States
99f46090-461f-4a5c-88b2-1801bf61fd01	7488 Bartelt Plaza	Montgomery	Alabama	36177	United States
d175a071-bde0-4934-b501-dc1766f0a431	329 Judy Way	Washington	District of Columbia	20231	United States
9bb50572-bab5-4c9e-a671-0aefdae280c3	81 Huxley Place	New Brunswick	New Jersey	08922	United States
dcd4269c-0f65-459f-a3c3-772a6e3b480b	336 Reinke Junction	Portland	Oregon	97216	United States
5fdf624b-9471-4c90-ada7-4625c9a1a9b1	3 Clemons Alley	Evansville	Indiana	47705	United States
ac064b65-b684-4105-860d-98cfba9f3654	8 Emmet Parkway	Fargo	North Dakota	58122	United States
1f1e55c3-be5a-4427-aba9-f7415c63b47e	7328 Rowland Road	Toledo	Ohio	43615	United States
922aadd5-920c-477e-a1f2-772864be6243	63209 Cambridge Avenue	Lubbock	Texas	79415	United States
52aad4b0-6365-46ef-ade0-eab28d6b0895	3156 Golf Plaza	Brooklyn	New York	11205	United States
ac31d873-9c55-4f79-bfef-35b0e6cee330	61 Union Road	Springfield	Illinois	62756	United States
b9475aef-e2cc-4a80-8808-53019ebe3fc9	2 Crownhardt Place	Fort Lauderdale	Florida	33336	United States
c568a059-12b8-4e5a-8728-73ecb13fa4d3	67189 Fairview Point	Columbus	Ohio	43268	United States
fa180de3-4769-40f4-968f-bb4a07690686	9 Sunfield Drive	Topeka	Kansas	66617	United States
3ba10251-5e48-4f6c-bf02-4005e6e269ad	9826 Kennedy Lane	Richmond	Virginia	23285	United States
986f084d-2c8b-4697-8978-e1d9b5af37b8	9 Cardinal Way	New York City	New York	10045	United States
a77e39a3-455f-4892-9c5f-2c5ae06261d5	2605 Hermina Court	Odessa	Texas	79769	United States
16041d3d-3649-481b-9b78-4104d69ffe38	96296 Monica Avenue	Bloomington	Illinois	61709	United States
56b1d162-1daa-426f-96c1-7432e3f342a1	4 Donald Road	Spokane	Washington	99260	United States
9ad5e75c-3eb8-4b60-8b30-d3c735bc733f	6 Gulseth Place	Jacksonville	Florida	32215	United States
74d14d78-e6e8-4c57-9620-5a2656d3155c	9 Moose Center	Asheville	North Carolina	28805	United States
ac27d414-b84e-4e25-9e98-1c53ed5e6771	4615 Birchwood Court	Baltimore	Maryland	21239	United States
509d17e4-a34e-4de1-b5fa-1db0b9c4e98a	4861 Longview Hill	Richmond	Virginia	23277	United States
9d45b07e-4562-48c3-8789-a36ad54ca64f	1 Mockingbird Junction	Clearwater	Florida	33758	United States
1ca1cca5-d49d-485e-a397-ddad5d1703a1	7384 Warbler Circle	Raleigh	North Carolina	27615	United States
e34ae211-893f-4b2f-8ff5-5c37fdd9efd0	0 Dexter Drive	Denver	Colorado	80228	United States
9b1c93be-3073-4b06-bf73-03e8583e061d	89843 Boyd Park	Fort Lauderdale	Florida	33345	United States
fa779bcb-fdc3-432d-9b8e-afef8c905d48	759 Dixon Avenue	Atlanta	Georgia	30392	United States
2e02c0de-cf21-41a1-8222-9697b23eec86	3515 Carpenter Plaza	Lima	Ohio	45807	United States
4f91a187-2937-478a-a798-85ed17a2bbc7	3 Holmberg Junction	Tyler	Texas	75705	United States
28ea5a79-2461-4609-927f-bd5f38387ec3	345 Hanover Street	Jacksonville	Florida	32259	United States
c04d3ef7-63ce-4e5e-b01a-50755510a418	0 Harbort Court	Long Beach	California	90805	United States
822a9aad-634e-4316-95cc-2d6a839a0018	71 Monica Hill	Fresno	California	93740	United States
1642126a-f2e7-4fcc-93c3-08df7b2c1655	6 Rieder Point	Charlotte	North Carolina	28289	United States
31bbb642-265a-4286-b558-6079317525d3	51562 Mesta Point	Santa Monica	California	90405	United States
0b9ac418-f83e-4db6-9f2b-55fcf5a99bce	44 2nd Trail	Newark	New Jersey	07112	United States
64b78138-9d5b-40a2-9913-c8bb06a43c64	71 Wayridge Plaza	Pensacola	Florida	32590	United States
852eeef6-f802-4510-a531-be585587167e	251 Bartelt Lane	Oklahoma City	Oklahoma	73152	United States
b48b0fbc-aa61-412b-b141-967f91c1e671	8 Bluestem Parkway	Anchorage	Alaska	99507	United States
c7fa5360-9120-4c23-bc2b-0b72122e216c	1936 Stuart Road	Ventura	California	93005	United States
6d005907-c9d8-44d5-9e07-981826996141	8163 Longview Center	Miami	Florida	33175	United States
e5577fd6-32b7-43b6-8d6b-77268dea31c2	36176 Anhalt Junction	Bonita Springs	Florida	34135	United States
c5b42961-169e-4ba2-8a08-ddf5cbccc09e	13 Aberg Point	Miami	Florida	33124	United States
d6a36471-09df-4a41-90cb-62fca8649557	60947 Sauthoff Parkway	Pittsburgh	Pennsylvania	15235	United States
7c36fff1-5505-4184-8449-f08cdb3d20f4	77 Lighthouse Bay Center	Cincinnati	Ohio	45999	United States
59cc60e2-8730-4090-a83c-75700b7a8608	73892 American Ash Court	Oceanside	California	92056	United States
ff5c02be-a271-4b41-ad6d-227ebf118481	6460 Tony Trail	Pasadena	Texas	77505	United States
5e2870f7-9d03-4c3b-91d5-289b955911ec	172 Barby Park	Houston	Texas	77250	United States
acc1541a-5f15-463e-8189-05f7fd7bd947	00958 La Follette Junction	Modesto	California	95354	United States
d405cf8f-2e67-4edf-be9b-9474062bf1cc	0 Tennessee Place	Columbus	Georgia	31904	United States
be1a687e-7220-4ad6-a274-92f7306c93cf	702 Upham Circle	Eugene	Oregon	97405	United States
dfc371c6-efaf-4e90-b5f3-cdc2ebede3ed	2 Graedel Plaza	Gainesville	Georgia	30506	United States
31605936-cc71-49ac-bd52-3742b0b06534	9954 Quincy Circle	West Hartford	Connecticut	06127	United States
46708a14-4d15-49bb-9b38-8d75d5e52ee3	199 Jana Parkway	Charlotte	North Carolina	28230	United States
e2f251f3-a3b1-4c44-8a6c-9d9e2d2bab40	757 Rutledge Drive	Colorado Springs	Colorado	80905	United States
d6398f7c-8b1d-4690-a9aa-6d40525136d1	54884 Southridge Lane	Phoenix	Arizona	85053	United States
67924bd0-5940-4631-acd9-09003eafcf96	33699 Golf Course Drive	Monticello	Minnesota	55585	United States
2ade5ae1-677f-42c3-9a5e-3d8a64c01430	8569 Burrows Parkway	New York City	New York	10160	United States
57c6bf0b-4322-41ac-be60-3ba1a85c3e7c	041 Killdeer Junction	San Bernardino	California	92410	United States
6d0c4002-1c61-4e79-aefd-86556939223d	2 Sycamore Terrace	Scranton	Pennsylvania	18514	United States
048bbc9f-0190-490f-8ed5-2b679a8a8589	97 Manitowish Hill	Syracuse	New York	13251	United States
de870d2e-7118-431a-9964-2e20e400a94e	04926 Northland Pass	New Brunswick	New Jersey	08922	United States
3cab0d6b-7df6-4e76-b586-0728bf4fe975	9450 Vahlen Alley	Daytona Beach	Florida	32128	United States
56d4a1de-9a0e-400d-b728-1d029d84c8b4	163 Grim Place	Phoenix	Arizona	85045	United States
05e12ae1-e8ac-48f2-9492-c1b2288f0f3f	8 Algoma Avenue	Colorado Springs	Colorado	80910	United States
a9d295a6-5e19-404b-a584-d98efc74a3cd	848 Village Place	Pasadena	California	91125	United States
eaa3b7ec-7af2-448c-967a-d323ead137a6	8 Dennis Point	Raleigh	North Carolina	27658	United States
7c02446f-ee6a-4b14-ac74-c9f221a46bf9	90 Kropf Junction	Portsmouth	New Hampshire	03804	United States
28d12024-5e74-483d-9729-fe7b3f55eea9	12246 Marquette Terrace	Fort Worth	Texas	76178	United States
a23d098a-a3e1-4748-979e-17e3da8f21fa	533 Main Parkway	Meridian	Mississippi	39305	United States
84506e0f-a3ee-4419-9f4d-2b256346d542	71508 Farmco Pass	Oklahoma City	Oklahoma	73109	United States
0f6fa1a7-bb98-451f-b137-90f2c49e953b	396 Butterfield Lane	Denver	Colorado	80255	United States
55952ced-812c-4b06-9a8f-092e715be153	7 Morrow Lane	Washington	District of Columbia	20557	United States
cee12337-cc84-4f2d-941c-e556aef97f5a	1 Arizona Hill	Washington	District of Columbia	20022	United States
0193fb77-2bb2-42dd-8756-a3c5131defe2	6 Butterfield Avenue	Fort Myers	Florida	33994	United States
ddfbf404-f5b3-4108-a51d-51bfdfe34dbc	583 Claremont Park	Austin	Texas	78744	United States
91c000e5-fc42-4bb0-b91f-3791427fe39b	2388 Spaight Park	Omaha	Nebraska	68105	United States
f979d4aa-8c9c-46a8-9743-90578f2c17b0	3352 Eggendart Circle	Falls Church	Virginia	22047	United States
51d40f22-917e-44d8-bd0d-ae78756bed4d	64 Annamark Alley	Bradenton	Florida	34205	United States
ba5e77d2-a780-4878-86d7-1a5b278edc25	65271 Gale Court	Athens	Georgia	30610	United States
62af03e0-796c-467e-a44a-ddf9a6f722d1	62 Jana Point	Melbourne	Florida	32941	United States
df86aef5-9e0f-45f8-b501-75261c1708fc	0904 Summerview Pass	Ogden	Utah	84403	United States
6ad59cf5-1864-488f-abe7-123f04c1508b	6014 Division Avenue	Des Moines	Iowa	50393	United States
44b491a3-1949-45d3-8135-d5b4a1c32336	8304 Fairfield Hill	Fort Smith	Arkansas	72905	United States
53ebac9a-2247-46ba-b1dd-e5483c557b1c	53 Warrior Alley	Clearwater	Florida	34620	United States
aa33fa42-7a70-4373-8088-9ca1a7d531cf	138 Mayfield Plaza	Littleton	Colorado	80126	United States
32805a04-e764-48a8-add8-5c5763ac1965	849 Eliot Hill	Houston	Texas	77060	United States
ab2ee79b-0878-4870-bb06-d20cf70aed1f	643 Vermont Avenue	Saint Louis	Missouri	63110	United States
ab7416ca-fcb0-4285-9474-b11a107ccd42	2321 Butterfield Alley	San Diego	California	92137	United States
5c8e6adc-4a40-4119-920c-7b0116150805	54616 Sutteridge Alley	Richmond	Virginia	23208	United States
d3cbdedf-dbb8-41a5-b80b-904a4ecda452	328 Hagan Crossing	Corpus Christi	Texas	78415	United States
06981703-cc70-4d26-b101-54a917597967	5352 Everett Drive	Evansville	Indiana	47747	United States
3ab6e986-1c47-424a-b400-94a1529d1d10	4 Ramsey Point	Phoenix	Arizona	85025	United States
19efee05-21bc-408f-8008-33f529f4cfde	94 Messerschmidt Court	Austin	Texas	78778	United States
8f13260e-0c9c-471e-bfc2-ff1a3cf302e1	11842 Heffernan Parkway	Minneapolis	Minnesota	55407	United States
9a29621c-6456-468a-95bf-11af63e52bbe	95 Kim Parkway	Akron	Ohio	44305	United States
306f23db-2fa2-488f-8105-cf6038452ca7	0 Dahle Crossing	Portland	Oregon	97255	United States
5af90d0c-d17c-44a8-897a-992aee289738	77947 Karstens Court	Kissimmee	Florida	34745	United States
1c84f39d-16ae-4106-bdcb-1e842941f2c7	1874 Blaine Lane	Fairbanks	Alaska	99709	United States
56b24c63-6d12-4722-964e-b26ebd6c1678	895 Valley Edge Drive	Cincinnati	Ohio	45264	United States
fc17bae7-255c-4af8-95f3-93a873148aa4	7957 Dahle Place	New York City	New York	10270	United States
3916f314-8657-48c2-a597-2bdaf079aa90	7 Blackbird Trail	Washington	District of Columbia	20067	United States
53441b57-f59a-4777-b31f-47c4265169e5	86 Thackeray Avenue	Kingsport	Tennessee	37665	United States
93d4b3cc-1d63-40d4-9cd2-48642685466e	6 Goodland Place	Minneapolis	Minnesota	55487	United States
3ecd063d-c12d-490a-a94b-c1446b1d5771	12 Jay Point	Beaufort	South Carolina	29905	United States
3f001e2b-dd0c-44d6-a509-a5e021bc7e97	51329 Kipling Court	Virginia Beach	Virginia	23471	United States
d382076a-a0af-420f-9ba8-70043bc9f5a7	87 Forest Dale Street	Albany	New York	12205	United States
e114e514-6fe3-4078-b243-5d53b108ba95	0 Cascade Avenue	Battle Creek	Michigan	49018	United States
74410238-65a5-4be3-81b1-363ea5d64563	20173 Village Green Park	Boulder	Colorado	80305	United States
0e3db085-1339-492b-8893-f98574ad81fe	8448 Packers Avenue	Denton	Texas	76205	United States
42e4b6dc-7ba1-402a-98b4-d709926201a8	84 Derek Plaza	Odessa	Texas	79764	United States
7764b36d-6eb2-40ad-8010-b3866e03f828	29 Washington Plaza	Columbus	Ohio	43220	United States
a5b9a260-bb80-465a-b2e4-4353003c7fa4	67 Wayridge Lane	Richmond	Virginia	23293	United States
29c6aae7-f43e-4f5c-97aa-2f3dea930457	070 Clyde Gallagher Street	Atlanta	Georgia	30358	United States
bb8e51fb-e263-43af-bd4e-5c6efb98501a	00 Arizona Trail	Miami	Florida	33185	United States
450f1db5-428d-4f2c-9d30-7a175ba7a3be	779 Crownhardt Court	Tempe	Arizona	85284	United States
f33c25c4-3124-4cef-b5e1-313c7c953e12	5 Florence Court	Charlotte	North Carolina	28278	United States
a83019a7-71ce-492b-a680-20ad46bd0423	93 Roth Junction	Atlanta	Georgia	30311	United States
7e4e0cf2-fbad-4c9f-a1cf-27df9646ad11	1012 Hoepker Court	Fresno	California	93709	United States
8a58ca44-aea9-485b-90f4-64b218944a76	21830 Monica Way	Springfield	Illinois	62776	United States
0f73662f-a152-4528-90a1-35c262b205f2	5 Daystar Alley	Reston	Virginia	22096	United States
43720731-d2dd-4cb0-a51f-3bb7c3dd389e	7 Eagan Circle	Springfield	Massachusetts	01152	United States
527d0a9a-f572-4841-b9e0-5c19e3cda84d	75 Reinke Road	Muncie	Indiana	47306	United States
e8ad973b-6abe-4ee5-9ca0-09302a62ee87	93 Veith Place	Fresno	California	93721	United States
225e9e26-54de-48b5-9848-a9714c2d5c46	432 Marcy Way	Dallas	Texas	75358	United States
db4ef49e-3ac0-4348-97f6-fa4fc7b8e2f3	36398 Michigan Court	Frankfort	Kentucky	40618	United States
4752a6b9-40ec-45f9-a4aa-b500df4dd30b	10186 Hayes Center	Bakersfield	California	93399	United States
51813a26-c2f3-4984-b0c4-4e838780e74d	27685 Montana Center	Woburn	Massachusetts	01813	United States
a0543f96-c92a-45b9-9f28-6bd318a48f66	7 Birchwood Point	Bakersfield	California	93311	United States
1c1c1d1d-6b86-4e37-9410-7b49ddf0edad	61 Thompson Center	Fort Worth	Texas	76198	United States
c89e4b9e-06a0-4d69-bbfa-39e0eaa39e92	1621 Waubesa Drive	Iowa City	Iowa	52245	United States
93883aef-0201-4d77-8b76-22b49c030545	7 Fairview Terrace	Santa Fe	New Mexico	87592	United States
86fbb781-2f41-4075-87a6-fa508618bd39	7323 Luster Street	Saint Louis	Missouri	63104	United States
cb9cceb7-0b9f-4b08-a547-099973b02db3	8962 Carioca Center	Honolulu	Hawaii	96810	United States
37e129c5-dd86-46e7-a1c1-fc0a791a06c5	0121 Iowa Trail	Austin	Texas	78789	United States
711a7d62-2fac-41cd-8930-b0bd98de94b2	86 Pepper Wood Junction	Washington	District of Columbia	20470	United States
68a0ea43-9145-4cc0-9b5d-686daa8cb21e	1500 Elmside Alley	Shreveport	Louisiana	71161	United States
73411e99-7665-45d4-a5ec-3ddcf5dfd9ca	025 Esker Plaza	Idaho Falls	Idaho	83405	United States
5daf17fa-6b63-4ffc-9775-836423861e20	1 Carberry Crossing	Spokane	Washington	99205	United States
65a71221-ebf2-490b-a204-f765c069d3ab	44923 Vera Place	Alexandria	Virginia	22313	United States
cb9c3c26-23e1-4023-97b2-1b96a3892870	10 Pond Avenue	Madison	Wisconsin	53705	United States
2e11a38f-817e-4777-84df-5e1884f33c9d	1612 Garrison Lane	Huntington	West Virginia	25721	United States
d3b31e82-2b73-460b-bf55-b25dcb2c1d1a	7255 Colorado Avenue	Denver	Colorado	80262	United States
48430737-fbad-491d-a8c1-6f48c013ebcf	7597 Northland Road	Washington	District of Columbia	20430	United States
961d0ca4-007a-4a27-b646-d4e5fe4f5dbe	6298 Melrose Terrace	Syracuse	New York	13251	United States
3ce3840c-fb8a-4dbf-af65-bd6312e28bfb	10685 Shasta Junction	Springfield	Massachusetts	01152	United States
01a28ed9-3098-4eef-bfe7-00f5c7244ff6	0389 Dorton Parkway	Davenport	Iowa	52804	United States
7e5d913b-8aaf-42e2-b2dd-6b54c919e410	0 Jenna Road	Mobile	Alabama	36670	United States
f3087610-a3e1-44c4-9eb1-f5c817a5020f	39159 Doe Crossing Road	Muncie	Indiana	47306	United States
86a2ce33-b0da-4611-98e0-5a99821892b7	210 Mendota Road	Torrance	California	90510	United States
4eebb83a-7581-4c17-b778-cfa139e005b5	065 Thackeray Court	Saint Paul	Minnesota	55146	United States
dad3f236-3ca2-4f7b-831e-37b4cd9e5f17	750 Thackeray Alley	Boise	Idaho	83722	United States
b52da44d-a4b6-4300-893a-127cf1146e7e	92 5th Hill	Dallas	Texas	75372	United States
f71cce62-65fe-460c-ac52-b9a5c6e38adf	11 Burrows Plaza	New Haven	Connecticut	06505	United States
2c40237a-9a62-4c6c-a1f4-df41ce6b16a6	8778 Fieldstone Terrace	Newark	Delaware	19725	United States
b6bd00a6-70db-4dc9-88f4-601ecbaec463	97 Butternut Place	Cincinnati	Ohio	45264	United States
b46a485f-d16c-4200-924d-b1f60e2fdbcf	6049 Hauk Crossing	Houston	Texas	77040	United States
302a8fbe-bc2a-4a58-b7cc-489e09f38623	51 Basil Crossing	Albany	New York	12242	United States
e5f96588-74a9-46a3-9b0a-d1464fc643c7	5161 Butterfield Park	Gainesville	Florida	32627	United States
63ef5090-f7e2-4865-af93-21a07a1d524b	7826 Saint Paul Park	Philadelphia	Pennsylvania	19131	United States
7e9795a2-117c-4846-b083-b0d78779afeb	91176 International Parkway	San Diego	California	92160	United States
f7470227-34a5-4a14-acf3-56537e8735ef	29621 Briar Crest Pass	Omaha	Nebraska	68197	United States
0b016796-c06e-414a-8995-1cd6b6bd0996	982 4th Circle	Hicksville	New York	11854	United States
54b97416-d951-4982-9650-f491bff84a34	346 Laurel Court	West Hartford	Connecticut	06127	United States
63effa87-931a-4649-966e-07be3bd5c2e2	42 Lukken Junction	Albany	New York	12237	United States
bc413246-5824-43cb-8f5e-0d228305bf48	2 Bartelt Road	Washington	District of Columbia	20205	United States
26ae5319-255f-407d-b805-a86a8c7f8c6e	46841 Di Loreto Terrace	Chicago	Illinois	60669	United States
6c0551c5-25c4-48b7-a246-2ee597d68ddb	42 Stang Plaza	Charlotte	North Carolina	28299	United States
c1b27e8f-20b2-488d-bd66-ac77df8f9a72	123 Maywood Road	Erie	Pennsylvania	16534	United States
eb1b5b71-0f29-4ac4-bda8-cd6e74d5f2f7	6 Lakewood Court	Brockton	Massachusetts	02305	United States
c99b59a3-21f8-41f4-91f6-55b41714ce78	9 Glendale Crossing	Helena	Montana	59623	United States
f8e02058-025b-44c1-bb0b-2d9161bc597c	708 Dorton Park	Philadelphia	Pennsylvania	19196	United States
e4abefd9-7fb2-4ad6-9380-2a3b03826ea8	44950 Karstens Point	Charlotte	North Carolina	28278	United States
826d1be3-8159-4b88-8d12-cf40e610f062	12491 Fisk Road	Paterson	New Jersey	07505	United States
9f4a71d5-40ac-4fab-95d4-abfa181a51e3	1792 Stephen Alley	Fort Wayne	Indiana	46857	United States
9fbffb6d-05da-4a9d-a73a-5a745d6eaaba	28 Sheridan Park	Portland	Oregon	97221	United States
2eb0ba4f-eef7-4f63-a84a-6f4d8bf546e9	9046 Fisk Way	Louisville	Kentucky	40298	United States
0af9fdaf-95c4-49fb-88df-7f2cf3ff17ae	8 Ridge Oak Circle	London	Kentucky	40745	United States
151093f0-d7d3-4df5-8f70-9701761a096f	81 Moland Alley	Chula Vista	California	91913	United States
fb110bf7-d9bd-49bb-b13d-87f884b920b7	685 Eggendart Avenue	San Jose	California	95108	United States
83e62af3-60da-4252-9bbd-83cb243a260e	988 Manufacturers Center	Columbus	Georgia	31998	United States
efddd905-360c-4fca-8de3-4a79f29cff1a	73 Mockingbird Pass	Ogden	Utah	84409	United States
0c660239-b393-4802-8780-e05684f4ec6c	143 Graedel Center	Kansas City	Missouri	64125	United States
29f59a1b-f5f4-4648-9790-80ea34a31ec9	2 Towne Lane	Cincinnati	Ohio	45296	United States
df3487ce-cf04-477c-a584-34eccf34bd3f	54 Bashford Parkway	Charlotte	North Carolina	28220	United States
038b106d-6098-43b3-aaa4-ec96883e588c	5 Forster Road	Joliet	Illinois	60435	United States
2e5345cd-086c-4f36-bcaa-90b55b606d38	4 Westport Pass	Silver Spring	Maryland	20910	United States
10198710-7617-4ba0-a089-51657bc2f8d2	92163 Monica Crossing	Santa Ana	California	92705	United States
7f568f92-a6f4-4bc5-bacd-377e6b426b52	278 Utah Way	Vancouver	Washington	98664	United States
b2cc758f-ec67-416a-896e-372948e157c5	3919 Spaight Pass	Nashville	Tennessee	37245	United States
845442f5-3df5-41c2-897f-aca33f3284ca	6527 Fairfield Center	Saint Augustine	Florida	32092	United States
3e4bb40c-e879-42b0-a688-6f0b04686c7d	7 Cardinal Circle	Annapolis	Maryland	21405	United States
e293f7e2-e99b-4361-b6f6-2487f77081e3	53 Golf Street	Washington	District of Columbia	20551	United States
727b530a-925a-4c39-8958-2bb3fd930a50	319 Hallows Crossing	Harrisburg	Pennsylvania	17105	United States
284097e4-9410-41f2-819c-5f9800c9fbff	34 Cody Circle	Grand Rapids	Michigan	49560	United States
a9cdbc3d-5e0c-4d4a-afe0-03634ca94be4	62333 Colorado Terrace	Jacksonville	Florida	32255	United States
4e3f39d5-94d0-42d6-a98b-a3d9e34ae8ea	22411 Brown Street	Minneapolis	Minnesota	55448	United States
8906dca8-2464-40a0-a75d-7e29f3ba3421	789 Del Sol Street	Louisville	Kentucky	40215	United States
9e11b368-bfa9-4200-9ef2-f0fd61f24995	72 Lake View Lane	Dallas	Texas	75226	United States
ccb22d70-2f35-4110-ae63-cf0111259286	09263 Artisan Alley	San Francisco	California	94137	United States
01d761d7-1217-44f6-8662-944a65d1002f	4 Cottonwood Alley	Boulder	Colorado	80328	United States
a9fe158b-e887-4b35-af28-2d200c994b4f	4576 8th Alley	Seattle	Washington	98166	United States
d092aa00-a3de-4b74-b904-fdda227ec35a	08 Manley Street	Las Vegas	Nevada	89178	United States
5e9ba374-2db8-419f-95db-3e6c20bfc314	5 Waubesa Court	San Jose	California	95194	United States
a6b4537b-7491-4d6e-9477-88f0c1168a0e	0490 Doe Crossing Alley	Arlington	Virginia	22234	United States
ce87117e-30cc-4e01-a7c4-305dc7976a62	4 Boyd Drive	Phoenix	Arizona	85010	United States
b90bc122-e135-4716-9cfa-4e593a782083	34 Dakota Circle	Houston	Texas	77201	United States
4e5c335f-e4d3-4610-a199-2b3925801d84	69003 Monica Alley	Tampa	Florida	33673	United States
5b415daa-a467-434f-8de9-5a6e65e915f3	43086 Buell Park	Inglewood	California	90305	United States
c6259dc2-a372-47ca-be68-590e086a1d87	30784 Corben Plaza	Corpus Christi	Texas	78415	United States
24bed50c-17ad-4579-8b71-a8bca4b36b9e	95 Manitowish Road	Scranton	Pennsylvania	18514	United States
352e9970-7495-405f-80d6-389b8052ef5a	0599 Park Meadow Junction	Cincinnati	Ohio	45233	United States
2b12da91-11a3-40d6-acc8-14afdd30a75e	12405 Maple Wood Alley	Saint Paul	Minnesota	55108	United States
100ff2c6-1d32-45f4-aeff-f5aa51f5d8f9	8 Westridge Place	Houston	Texas	77250	United States
0965fa4c-54ba-4c70-9352-012cc48b4428	592 Dovetail Drive	Oklahoma City	Oklahoma	73167	United States
82a415cb-a1fc-4081-8418-334c7d84c8d6	1 Johnson Way	Pocatello	Idaho	83206	United States
66ef44f8-23b1-4e4c-be7d-0970bb9eeaf2	0 Hintze Pass	El Paso	Texas	79955	United States
7ca6474d-9eff-41d0-a710-af24df78fa36	48 Dovetail Court	Corpus Christi	Texas	78465	United States
9b6a94a8-6d66-4cfb-af74-ba5b1a330a39	9 Bowman Court	Evansville	Indiana	47712	United States
5ab04404-1c18-4524-839c-722180b79af8	6105 Hoepker Place	Southfield	Michigan	48076	United States
966f63ae-58f1-474c-ace8-2d1968f78434	7 Amoth Drive	Sioux Falls	South Dakota	57188	United States
2fc1bb88-1a73-406e-803c-0ba49133529b	8892 Namekagon Alley	Phoenix	Arizona	85053	United States
a03604d2-190a-433c-b9c2-779843b6e9a6	3701 Kingsford Point	Memphis	Tennessee	38109	United States
05ad63f1-0540-414f-8d99-a50f2e0a457e	21 Pepper Wood Court	Sacramento	California	95852	United States
e0044870-3189-47b4-972c-15ef08e59064	72 Rockefeller Drive	Hollywood	Florida	33023	United States
bc919f2c-1cf6-41eb-a02d-4a918bc18013	20379 Sheridan Terrace	San Bernardino	California	92415	United States
cc832514-987f-46ba-bf75-a38c712eca3e	0478 Del Mar Terrace	Naperville	Illinois	60567	United States
faceb9e4-be92-4dbf-9448-759d61373568	4030 Heffernan Circle	Charleston	South Carolina	29424	United States
635f9ac6-a474-44fd-a0b5-99143f40a6c6	658 Elmside Park	Richmond	Virginia	23277	United States
1b7768f6-09ff-497d-a7fc-88b150d13616	71175 Dawn Terrace	New Orleans	Louisiana	70129	United States
bb81b038-9021-4979-af13-1a173ea4110e	6 Clemons Trail	Columbus	Georgia	31914	United States
ee73694e-2fcb-43f1-848a-a1796ba3c58c	7 Maple Wood Court	Tulsa	Oklahoma	74116	United States
4bee80be-bf60-4180-bdc4-26282d9639f8	26525 Manley Hill	Jackson	Tennessee	38308	United States
ace857b7-1964-4d96-bea8-58562210500d	67783 Gateway Point	Monroe	Louisiana	71213	United States
8de572af-a38b-4cf3-ba47-f66ace11f264	49314 Sullivan Crossing	Saint Petersburg	Florida	33731	United States
38377fde-fdee-4099-9de0-d2cf4e73891f	48 Sugar Court	Phoenix	Arizona	85053	United States
518303b8-c720-4eb5-8658-55b9ede2010c	1922 Roth Park	Jacksonville	Florida	32255	United States
d5d76c00-d087-47e6-a5ad-9a3d54f367b8	4656 Riverside Place	Baltimore	Maryland	21290	United States
e07186e0-2632-4897-b4b7-588e7c07d819	05821 Spenser Place	San Antonio	Texas	78245	United States
f3c8388e-e5ab-4c39-9dae-9351908b9dca	3 Harbort Court	Chattanooga	Tennessee	37405	United States
ca1e77d7-5bfa-4d13-95ab-5c8acfa25006	1 Grim Alley	Silver Spring	Maryland	20904	United States
bb6f171f-87c3-4a22-b04e-df852c869820	931 Oak Lane	Burbank	California	91505	United States
b0f8efa1-1e57-4b43-8962-95a28d906427	46664 Hallows Trail	Bronx	New York	10454	United States
f176e0ef-3a31-4c1c-b4d0-8ed90f4e4492	4 Merchant Plaza	Tucson	Arizona	85737	United States
9f77f63a-478c-423d-80e5-b7d3bfbf6af7	86037 Leroy Trail	Tulsa	Oklahoma	74170	United States
1dc9c521-9ca8-4f74-91c8-f0a9bf76f025	29807 Utah Point	Arlington	Texas	76011	United States
5cd7a6dd-f9da-4c3d-ab27-f16aef301e8d	89 Esch Center	Washington	District of Columbia	20420	United States
ac48853b-33aa-4951-b6d6-833421187b03	98 Evergreen Lane	Greensboro	North Carolina	27415	United States
39212678-fb27-4b74-93a8-e4ea0337284d	5 Butternut Point	San Luis Obispo	California	93407	United States
a02859b0-ae14-4cc9-8663-a3d310621803	8889 Straubel Avenue	Homestead	Florida	33034	United States
566751c3-b375-4474-8b02-b938a6148434	3741 Emmet Junction	Fort Pierce	Florida	34981	United States
d2b18e0a-ee06-4f07-8efa-c8f76160440f	98910 Mcbride Crossing	Detroit	Michigan	48211	United States
a8f63366-ee5b-4974-8720-eac71270f50a	82 Holy Cross Circle	Washington	District of Columbia	20226	United States
bf7c9782-3c9e-4e02-8d7a-54faa2e10c8d	21 Doe Crossing Avenue	San Antonio	Texas	78296	United States
d155f77b-8a39-4102-bf15-f6065d59e1c4	879 Superior Trail	Des Moines	Iowa	50362	United States
ebf3ada2-8f69-447b-acf7-6aaa398f72f1	14 6th Trail	Atlanta	Georgia	30316	United States
18dc4699-cfa2-4101-9415-d0b7c588b783	63478 Karstens Avenue	Rochester	New York	14652	United States
38367db1-6600-4c09-b4ea-176c75bab4b2	38656 Oak Trail	Jackson	Mississippi	39296	United States
f43c83f4-b544-443a-a264-0aafb455c170	3 Bowman Plaza	Knoxville	Tennessee	37995	United States
af65b054-5c73-44ae-be75-b6fe9229b323	71 Corscot Avenue	Melbourne	Florida	32919	United States
842d819a-d931-4df8-9a17-789bdee58822	0625 Sachs Avenue	Cape Coral	Florida	33915	United States
29bab628-bfd6-4403-b1b5-35b67a1556af	56 Barby Way	Birmingham	Alabama	35295	United States
7ec3f15e-caa7-4f41-be47-66828a8732b5	985 Green Hill	Columbia	South Carolina	29208	United States
88a1ed3c-d67c-4f88-a4a2-a8bf6394bb54	25200 3rd Park	Philadelphia	Pennsylvania	19136	United States
66700c40-a7de-4b70-aa09-b78563bc76b3	90 Talisman Center	Montgomery	Alabama	36125	United States
8fe0c9b8-2b38-4141-b2ae-33f65596b295	14251 Sundown Terrace	Miami	Florida	33147	United States
c6c4bd21-af02-4750-ab7a-e32ce119b7b4	6 Lawn Circle	Metairie	Louisiana	70033	United States
0e1489ca-79fd-482f-b4bd-b9d6c3b64a7c	9732 Golf View Road	Columbia	South Carolina	29240	United States
a209adac-c065-4939-94a9-9bb019bbef2d	573 Porter Place	Kansas City	Missouri	64142	United States
72bce51e-1490-41f0-88cc-35dd0979e5c2	2064 Independence Street	Peoria	Illinois	61635	United States
2016e3c6-8a51-476b-af5e-a325143a040c	7 Magdeline Hill	El Paso	Texas	88563	United States
3de42f2f-c88d-48e4-a7fe-1962d5b55043	470 3rd Junction	Oklahoma City	Oklahoma	73109	United States
40f5909a-495f-4ac2-9ad0-de6fd109d899	560 Fallview Crossing	Monroe	Louisiana	71213	United States
16144cb9-5944-4e7d-a002-6f53e2fe62bb	08 Hollow Ridge Place	Columbus	Ohio	43220	United States
3923d752-7e22-41e9-82a3-8f807cf0cbdb	792 Stuart Street	Roanoke	Virginia	24014	United States
20d48279-d4bb-4e19-9be5-764344ffb201	76048 Harbort Street	Raleigh	North Carolina	27605	United States
b390b00b-4e82-4a71-a03b-724c517fbbd4	7265 Pleasure Plaza	Dallas	Texas	75221	United States
2cef649f-a08a-423b-967f-455ee36de959	8 Oriole Crossing	Houston	Texas	77015	United States
795da855-7924-409c-b2dd-575927321e10	85 Cascade Center	Valdosta	Georgia	31605	United States
8456c4cc-0f6b-40d7-b422-d885a6d64523	29 New Castle Drive	Albany	New York	12262	United States
3c584f5c-4ebb-4291-b7bb-a824710ecaaf	200 Dexter Trail	Boca Raton	Florida	33487	United States
6668d961-edfe-4d3f-9abd-d9aa3b1c0474	25 Mosinee Avenue	Colorado Springs	Colorado	80920	United States
1842d202-76be-4c5b-82aa-11c9250fb074	7104 Morning Court	Rochester	New York	14652	United States
69066f02-8976-40e7-b544-db2c87f0f2c7	4 Annamark Point	Knoxville	Tennessee	37914	United States
ebd29761-2b42-4419-948b-f686f7121209	50 Kings Place	Stamford	Connecticut	06922	United States
96c7e04c-589d-42ea-a321-ee5393f341b1	13341 Waywood Center	Fort Pierce	Florida	34981	United States
f1d3761a-01ef-4d2f-a078-32d252d11734	05 Maryland Park	Anchorage	Alaska	99599	United States
2f86fe85-f090-4357-a5b0-fbe8cc24bee1	6 Carey Crossing	Salt Lake City	Utah	84140	United States
a44479af-4cb6-4518-9729-7548d93fb52c	96 Anzinger Parkway	Philadelphia	Pennsylvania	19141	United States
af85e07f-3136-4012-8dec-63724d8f0db1	5 Sutteridge Center	Memphis	Tennessee	38168	United States
40e27098-3883-4f85-bdf8-a2da194fa817	0 Rockefeller Avenue	Boston	Massachusetts	02104	United States
f7d464a8-a874-4e02-8b53-d9c37850591a	0102 Meadow Valley Circle	Cumming	Georgia	30130	United States
c3d865ee-05bc-4a98-aded-9b05270a5b7f	3 Maple Junction	Sarasota	Florida	34233	United States
ce66cce1-6713-470d-b8c0-e40f68a80a83	540 Stuart Road	Birmingham	Alabama	35225	United States
9a0b23b7-4fec-43c9-b5a6-8cad4ab1c8d8	3052 Gateway Way	Springfield	Missouri	65810	United States
5b0f44f1-5c58-4670-a7ab-3c6edbcf4f57	9 Ridgeview Road	Sacramento	California	95833	United States
c1de02ce-42d7-4b46-99fc-fbd0e68ef2b9	53 Amoth Center	Sioux Falls	South Dakota	57188	United States
e9c263c0-5230-46d1-b1ef-c873d70cbfb3	5 Duke Terrace	Joliet	Illinois	60435	United States
8b7b21f3-b533-44c8-be1c-8a5ffee7f769	8252 Badeau Point	Las Vegas	Nevada	89105	United States
235fa43c-9918-4133-bd3d-d242ccfe9be8	15953 Blue Bill Park Pass	Rochester	New York	14646	United States
af03f329-bfcd-4994-a6f1-6126ac06be4c	3781 Morningstar Circle	Syracuse	New York	13217	United States
2a5901bc-fca2-461a-ac2d-0e4d049cad04	599 Weeping Birch Park	Topeka	Kansas	66617	United States
d277db0e-d4b2-4796-9903-d1a85408f284	053 Londonderry Way	Phoenix	Arizona	85072	United States
698b3ef2-1797-4f12-b7f9-a474faf8e530	67 Sutherland Street	Pensacola	Florida	32526	United States
917350bb-195e-4c39-b539-382e84de70dc	35 Paget Court	Minneapolis	Minnesota	55470	United States
57095467-16a1-4acf-abf7-aa7e510c42be	76 Eastlawn Point	Bozeman	Montana	59771	United States
ad74c197-5bde-40c3-bd76-17a971e7056f	3 Utah Crossing	Las Vegas	Nevada	89166	United States
caa1ba27-ca02-4a00-8228-c8839bb88104	5 Roth Hill	Los Angeles	California	90065	United States
8cd77595-82ee-475c-8656-f83c76736d2a	74 American Ash Street	Chicago	Illinois	60657	United States
72fd4679-4b9d-45fd-9a6f-0f4a91b5c662	0 Westport Hill	Abilene	Texas	79605	United States
32ed6f8c-ba0c-43f1-9e40-e3d6c4cc6579	37664 Dexter Drive	Washington	District of Columbia	20566	United States
373abab0-45fd-4494-81f4-3aa3f3ba24c8	30 Florence Plaza	Carson City	Nevada	89706	United States
32b5e125-2dbf-4528-b5c7-2c4ac38d4e4b	51 Londonderry Alley	Helena	Montana	59623	United States
d5438dbb-049f-4415-a91c-113827b0c01b	1846 Miller Hill	Kansas City	Missouri	64136	United States
323a4f1e-775a-478d-ac0c-eb172e7fc775	96 Donald Plaza	Richmond	Virginia	23213	United States
9e4f7c40-733d-4ece-96b9-0bc6d678e6dd	117 Sheridan Court	Columbia	South Carolina	29225	United States
ec41babc-e662-41cc-af11-725575c801cd	88132 Pleasure Plaza	Sarasota	Florida	34233	United States
1ce83e8b-9499-4169-ace9-d74dfca613e2	0841 Saint Paul Circle	Saint Louis	Missouri	63169	United States
81738399-f614-4642-8b93-512c50fbde14	3 Goodland Circle	Honolulu	Hawaii	96835	United States
0550f697-e20e-46ee-b865-417515d7c532	7061 Macpherson Junction	Little Rock	Arkansas	72209	United States
adf46a1a-f515-4004-9bed-4c6934868472	61 Dovetail Lane	Atlanta	Georgia	30323	United States
2e18abef-7738-4cd3-add8-2cadc2213871	3098 Lake View Place	Pueblo	Colorado	81015	United States
61dd8d75-b6a6-411b-8f9d-31092a8e4fdd	664 Summer Ridge Circle	Birmingham	Alabama	35279	United States
2a32428e-b2d3-4809-acf0-bc17ce3a9e67	61 Dwight Lane	Sacramento	California	95833	United States
13a64f06-0a75-4d1c-a030-dedfd14e5d89	196 Sycamore Park	Pasadena	California	91131	United States
d3e49c1a-b090-4425-a360-3565bd9d4d69	55 Jenifer Pass	Terre Haute	Indiana	47812	United States
61f35a8c-35b0-4f57-ba75-79a4ee8e4169	24 Kingsford Trail	Little Rock	Arkansas	72231	United States
4bf135f7-824f-4ddc-817a-d825fac69bc2	5 Bashford Lane	Henderson	Nevada	89074	United States
dadedaf7-39cd-4e4c-ad0c-721a639e5e1e	7 Fisk Street	Arlington	Texas	76004	United States
7664994e-cb61-4e5e-bea5-b624d13029de	9291 Thackeray Trail	Clearwater	Florida	33758	United States
7b1b9c7b-48fc-4f0b-b2f4-285a8b54166c	84282 Stephen Street	High Point	North Carolina	27264	United States
5e60510a-3851-4bc0-8392-888de9a455cf	743 Park Meadow Parkway	Kansas City	Missouri	64187	United States
b6eac346-4440-46e0-97f7-1bf36a569775	4872 Bayside Center	Austin	Texas	78710	United States
ca8346e0-ecff-4394-bb99-faa9d723156c	3135 Carioca Point	Springfield	Illinois	62776	United States
a836cbb5-ece4-406b-b15f-c6427f36a2d9	1429 Helena Circle	Washington	District of Columbia	20456	United States
82c28c17-aeba-4207-99e9-8300332deb56	81 Glacier Hill Plaza	East Saint Louis	Illinois	62205	United States
a5615910-3335-45be-b420-547405742996	93 Derek Hill	San Francisco	California	94154	United States
6a86fd43-c5d0-4e5f-87ea-03cbe19b4d7f	65 Bayside Crossing	Carson City	Nevada	89714	United States
305d65ec-8dd4-4558-aeff-a84685a15a81	63083 Crescent Oaks Court	New Orleans	Louisiana	70183	United States
06da2087-27c6-4cf9-9806-c0b41884392f	70936 Continental Road	El Paso	Texas	79989	United States
8522cf2f-02de-434b-9a35-b6aff0d76442	589 Oak Way	Des Moines	Iowa	50393	United States
9df4fe43-23b0-4fa9-93c3-d688006e00f1	38734 Sunnyside Junction	Wichita Falls	Texas	76305	United States
3ae47283-41fd-4d76-a57e-e2367f632f22	71536 Summerview Drive	Springfield	Massachusetts	01105	United States
774feca2-f3fd-4e65-ad05-f80bafe83bbb	9016 Division Plaza	Washington	District of Columbia	20299	United States
953a3d1a-7f89-45d3-8ad3-c1cf301ec9a0	0 Truax Parkway	Albuquerque	New Mexico	87180	United States
b3c81eda-5911-4c2c-bd30-b6b359411c05	9 Artisan Junction	Tyler	Texas	75705	United States
f79964dc-ce40-472b-8d39-5a680f725be1	53673 Iowa Drive	Fresno	California	93726	United States
68d42b91-3477-42b5-a533-272b32ad58d7	0 Havey Park	Chattanooga	Tennessee	37405	United States
f4575ae8-5031-4922-bbcb-51add856ce7f	25 Sugar Circle	Galveston	Texas	77554	United States
e7a36f64-6bbe-4d05-b6e9-f18f3561ef7f	59 Everett Avenue	Philadelphia	Pennsylvania	19131	United States
facda9cb-8080-44c9-abff-e67e37994f27	8 High Crossing Center	Hot Springs National Park	Arkansas	71914	United States
f033ed67-6f25-41e2-999d-b17cf3d92a7d	1 Daystar Center	Charleston	South Carolina	29416	United States
b2e4d64c-a71f-45d4-bf0c-083840237982	15956 Carioca Crossing	El Paso	Texas	88541	United States
428224c3-2562-42d8-ade3-bd05cc5005ca	519 Dryden Point	New York City	New York	10029	United States
a406f720-f9ab-484b-8d7a-d5c48947ea49	07 Roth Street	Birmingham	Alabama	35205	United States
bdcb1d94-9931-475d-b2c3-182040a1da51	620 Acker Point	San Francisco	California	94159	United States
de40062b-3187-4276-af30-20947d263bf8	02 Merrick Terrace	Santa Barbara	California	93150	United States
7d26c17f-04b8-44e6-9c50-ed3a0cd4df06	42520 Briar Crest Parkway	San Diego	California	92121	United States
015e946e-16a1-4419-9749-8a8a978ae37a	6301 Meadow Vale Junction	Fort Wayne	Indiana	46814	United States
01ff6f4d-1028-45b8-a7a9-75a36183c111	8 Portage Court	Philadelphia	Pennsylvania	19093	United States
98cbdbd6-13a1-4ca3-be1f-1832cd67d736	70190 Ronald Regan Lane	Fort Pierce	Florida	34981	United States
4412fff2-0445-49d7-9259-b9e5e704a6d9	9911 Autumn Leaf Crossing	Youngstown	Ohio	44555	United States
ad99744d-6b26-4d5d-97a1-8af4b19c3204	0 Reinke Avenue	Norwalk	Connecticut	06854	United States
f931284d-c307-422d-acc8-a05fd5e98ee6	8 Prairieview Pass	Charlotte	North Carolina	28278	United States
3b00f9ad-69d7-4b6d-a92c-170ee33d9bd0	97 Westerfield Center	Phoenix	Arizona	85035	United States
88b46cb7-27eb-4e02-87d1-860f53939275	8 Donald Lane	Louisville	Kentucky	40298	United States
ad8bf432-2e6d-4d7d-8754-ab3a7e4df390	0311 Continental Point	Bismarck	North Dakota	58505	United States
132346c9-ebae-4b04-8faa-eb468d8458a5	569 Thompson Pass	San Francisco	California	94164	United States
7e0cf07f-bae7-405e-9559-ae12b2d781a1	233 Linden Court	Newport News	Virginia	23612	United States
f306e16c-0d39-4663-baa8-19489195cf6d	58279 Norway Maple Point	Amarillo	Texas	79188	United States
c0cc8d41-55b2-425f-b0b3-bc7a9a047988	799 Utah Junction	Silver Spring	Maryland	20910	United States
e340f0ab-7f5f-40be-a894-e3062df3e32f	06534 Northview Circle	Philadelphia	Pennsylvania	19141	United States
96c8d1af-54f5-4a35-940b-a2a5ffa53698	184 Aberg Plaza	Los Angeles	California	90035	United States
71f7407f-edbf-45c5-8ab4-daa1b88f5fad	1 Sherman Parkway	Tyler	Texas	75710	United States
c604efaf-3fdb-40bc-b232-72d58aa81a1f	1479 Raven Road	Laurel	Maryland	20709	United States
d2bf24bd-6289-41aa-9c44-80e2f9ad469a	68 Colorado Plaza	Mobile	Alabama	36605	United States
3582d522-3c81-4835-8eaf-43efc0d5688b	0442 Sycamore Hill	Lancaster	Pennsylvania	17622	United States
9f490610-0a10-4c59-a99c-519d0215f312	0 Arrowood Crossing	Southfield	Michigan	48076	United States
4e081ce8-63b0-40d4-83ef-05ba40962636	4 Old Gate Plaza	Tallahassee	Florida	32309	United States
0ace6a64-f0a6-4c96-ba46-871af054b751	86 Dahle Trail	Portsmouth	New Hampshire	00214	United States
b1fb9e7b-12ee-45bd-93cc-a01dda82756c	2884 Melody Parkway	Boston	Massachusetts	02298	United States
db789634-8334-4078-8f3d-49785a100bbe	710 Old Shore Hill	Jefferson City	Missouri	65105	United States
4dfc9db1-c8a7-4af9-a292-65067f2b94c6	3522 Haas Alley	Clearwater	Florida	33763	United States
087c1ea4-8a35-4c3b-b581-4ed6c0a564ec	9651 Blaine Court	Washington	District of Columbia	20566	United States
a25adc7a-bff4-4831-b723-8cd98f36bfcd	119 Armistice Place	Washington	District of Columbia	20525	United States
68e423b2-87f5-4d82-a2aa-d35cb0ca7759	75519 Mallory Hill	Peoria	Illinois	61605	United States
d7fa4af5-e9ce-463a-aa8d-276ffc97a883	7630 Judy Parkway	Seattle	Washington	98121	United States
0a10386c-7e16-4a80-9e4c-e0d7816e7dda	7071 Buena Vista Avenue	Atlanta	Georgia	31136	United States
ff0a7044-6510-47ac-9402-11e6d610de31	059 Prentice Plaza	Boston	Massachusetts	02208	United States
fbb701fe-d359-4d7f-87b4-e6db861bc04a	2798 Reinke Way	El Paso	Texas	79923	United States
6c77e072-aa31-4388-ba4f-bf7ecc18ea68	05 Crest Line Parkway	Saint Louis	Missouri	63116	United States
cc2ae80f-c914-44b7-a9b6-412fede99862	8108 Artisan Lane	Charleston	West Virginia	25331	United States
11da15ab-444b-4c11-9c10-22c209b9994e	2206 Gina Drive	Mobile	Alabama	36616	United States
7b1f17ef-74db-4eaf-a703-72da18849e89	7966 Lakewood Gardens Hill	Peoria	Illinois	61629	United States
f1db5ff1-0b11-4aaa-87d0-83cdf6bfb997	826 New Castle Crossing	Huntington Beach	California	92648	United States
ca2b6550-57f9-430e-8bca-50879a66e778	122 Crescent Oaks Junction	Boston	Massachusetts	02109	United States
8c34b674-fb2a-4057-a797-8e523382037d	95332 Carey Way	Buffalo	New York	14215	United States
41f2f7c3-3d38-4bd2-ba14-9e623c5761b4	9 Village Junction	Missoula	Montana	59806	United States
902946ec-307b-45fc-82cc-da33f00ad87e	02029 Beilfuss Way	Springfield	Missouri	65810	United States
180866a5-525a-4055-b90a-9bde2bb3ff98	08 Buell Circle	Syracuse	New York	13217	United States
976d9b9c-d919-40e2-beac-6978fc44257d	595 Sundown Plaza	Spokane	Washington	99252	United States
7ee84056-4669-41ed-9c7a-8042a9ab2d45	75773 Park Meadow Terrace	Shreveport	Louisiana	71151	United States
017e9419-33ef-4b5a-8cea-a7c2953966b2	16 Steensland Parkway	New Haven	Connecticut	06520	United States
643f30ed-0592-4148-a900-5941a63f6620	20210 Scofield Place	Newark	Delaware	19714	United States
eaa9e926-3541-41c6-a272-a4725d66b29d	219 Northwestern Point	Birmingham	Alabama	35210	United States
14a480fb-9aab-4fd3-92b5-4a18ac5aec3c	08260 Maple Wood Pass	Houston	Texas	77240	United States
201fa5bc-dc25-4cda-9f5d-886ba289a903	40905 Larry Trail	Tacoma	Washington	98411	United States
69c21db8-fead-4936-bbb4-a31ed04ba04f	9286 Thackeray Trail	Chicago	Illinois	60619	United States
aaecc4dc-1d64-4016-bff1-75b4e5026805	8113 Pine View Circle	Valdosta	Georgia	31605	United States
f37cf6f6-9830-4987-939f-6ea80a275326	3088 Randy Crossing	Bakersfield	California	93399	United States
721826ae-a58a-4142-8c44-a422609cca09	791 Petterle Road	Toledo	Ohio	43635	United States
8ebb6284-f6b1-4205-95f5-033bf33b4e9e	5 Prairie Rose Terrace	Dallas	Texas	75310	United States
c08b0339-f64a-45f4-ac7d-53677f20f57b	8048 Briar Crest Plaza	Rochester	New York	14652	United States
37ed9891-5f24-4d41-be41-ce8bcaf7c47e	85 Westerfield Way	Charlotte	North Carolina	28263	United States
5a3b22ac-2a9f-4df3-8675-71597b48e011	2 Briar Crest Terrace	Clearwater	Florida	34615	United States
76dcb359-b3c2-40cd-8b0a-5fccb46ba422	1 Saint Paul Avenue	Independence	Missouri	64054	United States
40a54cf9-f233-40f5-86eb-4d6d2485a47d	8185 Hanover Point	Wilmington	North Carolina	28410	United States
b7504be4-01a0-491e-bc3e-d45a753e838f	0447 Linden Terrace	Sacramento	California	94280	United States
f9bc2563-d2c4-4b72-be45-f1bde2a01a14	132 Clarendon Pass	Muncie	Indiana	47306	United States
43b48c57-9042-4ca7-a78e-999b522aae62	334 Scott Way	San Luis Obispo	California	93407	United States
fc173ea5-6c9f-43b1-84af-e5140300e7c5	7846 Main Junction	New Bedford	Massachusetts	02745	United States
65f33542-eca5-4282-968b-0a8d879766fd	67 Sunfield Court	West Palm Beach	Florida	33421	United States
b575481a-ff4c-469e-9c4c-74d8f5aa39d7	6 Village Green Road	Saint Louis	Missouri	63126	United States
537be5db-6732-44e7-9d14-a4999b330155	5 School Trail	Fayetteville	North Carolina	28305	United States
7e3bcc4a-566f-4c47-885d-f6e38fbe17b7	50515 Marquette Circle	Toledo	Ohio	43605	United States
8a53bfcb-822f-42db-bb82-6046244716f8	5493 Maple Drive	Montgomery	Alabama	36114	United States
298312b3-059d-46bf-9f30-597c81e31a2e	203 Rockefeller Street	Fort Lauderdale	Florida	33355	United States
7768c4f5-c1c1-4732-9462-bf6f54e6a0fc	06674 Eagan Pass	Omaha	Nebraska	68179	United States
b8f6f436-2f99-48f6-96c6-b732918efc30	35101 Butternut Street	San Antonio	Texas	78240	United States
50f612a9-e30b-4038-8126-d829d24053ae	44 Arizona Point	Kansas City	Kansas	66105	United States
2bd48d4c-21a5-4f8d-bfbc-a45d096be71a	8184 Moulton Way	Denver	Colorado	80243	United States
53a9e631-f82b-412a-86ff-9e4423a2be54	88832 Hanson Drive	Washington	District of Columbia	20599	United States
0fab00c8-94ee-4ed6-b672-17ef07e1305c	1154 Maywood Court	Reston	Virginia	22096	United States
effc77d0-cf09-4f4a-a51a-fc3c1bb4bf5f	55266 Kedzie Trail	Sacramento	California	95894	United States
5d24041e-179b-4d69-8a93-c17294e28c3b	429 Mockingbird Hill	Huntington	West Virginia	25770	United States
605881e6-7546-410c-9969-73aabebd6614	9677 Erie Way	Pomona	California	91797	United States
10f28e74-6e05-49c8-81d8-515baf7800c6	546 Fairview Junction	Los Angeles	California	90020	United States
a65ae964-4ae8-4c0f-9c59-106a190bdabd	2873 Northridge Way	Jacksonville	Florida	32255	United States
65b89246-a410-465f-9987-172714d56fec	81133 Green Avenue	Columbia	South Carolina	29203	United States
5500405c-db93-4759-a983-2b1bbf9b73da	8751 Continental Court	Newark	New Jersey	07104	United States
f5c90095-49b9-49c4-93f4-a5c1a2ceaeeb	79058 Gale Court	Akron	Ohio	44321	United States
08af8bd9-2026-4a5f-8db2-d5f0b36ca722	8 Vera Place	Detroit	Michigan	48295	United States
65d9f7b8-385f-4625-83df-bc762c483110	1258 Roxbury Parkway	Houston	Texas	77085	United States
144a87bf-8130-453f-a68d-f5dbf16830d2	9 Elgar Crossing	Amarillo	Texas	79176	United States
58230a7a-3566-4f73-90b8-28d9f82dc183	78 Fairview Point	Dayton	Ohio	45426	United States
5a8f6ee4-6db1-45e8-b208-c268a25251e5	08762 Cardinal Pass	Tacoma	Washington	98417	United States
eafd1a75-6832-4fb8-bdf3-02c51236e9d4	0 Trailsway Crossing	Atlanta	Georgia	30392	United States
249bf1f2-e13a-4577-93d7-37647329d5fa	37874 Merchant Hill	Charlotte	North Carolina	28220	United States
4a3ece94-4fc1-4970-9da6-91fa6628bc59	9 Veith Parkway	Fort Lauderdale	Florida	33336	United States
3632949d-008c-42c0-bc5f-e79daf3c0555	8476 Cherokee Terrace	Nashville	Tennessee	37215	United States
3f9172e2-d481-4c8d-9827-79ec206652b7	1 Fulton Crossing	Boise	Idaho	83722	United States
49436b50-c39f-4976-b122-de86221e0ac8	83643 Lyons Center	Saint Paul	Minnesota	55108	United States
6089e0f3-c881-4601-9365-9c6d24949440	32092 Michigan Trail	Savannah	Georgia	31416	United States
ff6e7ba1-89de-4991-98ce-f06628d46c0d	33 Meadow Ridge Lane	Des Moines	Iowa	50335	United States
42b6ea31-ffbf-4fe0-8468-8a7613c2d905	2138 Hansons Place	Houston	Texas	77045	United States
e1a09f3d-b7cf-4d85-8bb2-beb732b80aef	80002 Ruskin Plaza	Ogden	Utah	84409	United States
c15a403e-bff3-43bf-869d-fbc50521b5d3	9020 Moose Hill	Omaha	Nebraska	68105	United States
f8c1efa0-1717-478c-8cc3-d7235c75e9fb	51 Gulseth Terrace	Sacramento	California	95838	United States
407c0a9a-2ddc-467b-8e07-88f3a47b237e	04 Tennyson Place	Delray Beach	Florida	33448	United States
89d655e1-c3b4-4d71-a643-c81e68268321	9 Fulton Alley	El Paso	Texas	79955	United States
0a9920fb-80ce-4506-8ee5-34d0e8d91805	101 Messerschmidt Lane	Saint Louis	Missouri	63126	United States
b9c1d50b-261a-47fd-bbce-c9298f774576	09011 Mesta Plaza	Santa Clara	California	95054	United States
bb46d66b-2d1e-43d6-8c52-4acf455d4527	3 Katie Drive	Fort Smith	Arkansas	72916	United States
174bdaa7-702d-437e-bb69-8545a133d915	36464 Summerview Pass	Miami	Florida	33190	United States
6d6a6c78-383a-417d-9b57-13eb6d663e9a	7 Bobwhite Park	Colorado Springs	Colorado	80940	United States
0d294bb1-91f4-473d-83f5-abb636cfe63e	818 Northview Court	Washington	District of Columbia	56944	United States
c87ebfa1-be7d-4d9c-86ee-5c8373cc50a0	5686 Eagan Place	Lima	Ohio	45807	United States
df53e306-f783-491b-8588-bd71d09c041a	5 Dixon Alley	Englewood	Colorado	80150	United States
f9f02652-b830-4902-860f-50d9e45488e2	27876 Hanson Court	Austin	Texas	78744	United States
4ffbbfb1-c59a-44a8-8058-4d24908b9e4e	40 Northwestern Junction	Salt Lake City	Utah	84110	United States
a9634f27-c059-4f25-9758-19016b3b8606	8 Mccormick Center	Phoenix	Arizona	85040	United States
9494ac0d-5f3b-4ddd-bace-b28bf53ab625	47 Wayridge Plaza	New York City	New York	10280	United States
b54eb739-4019-4918-b1ec-f1a3d5818073	3 Pawling Point	Amarillo	Texas	79176	United States
abd32c16-3398-41e5-81c1-502769303f1f	7 Sundown Pass	Dallas	Texas	75251	United States
3dcc70c4-596c-4160-92c1-4ceaf8ea1ea1	06 Surrey Drive	Maple Plain	Minnesota	55572	United States
4612a37a-0e4b-449f-8ec0-b22dd1b0b0e9	8 Golf Course Trail	Jamaica	New York	11407	United States
6c678e2e-960f-424c-a38c-96102d67bdd6	958 Corry Park	Nashville	Tennessee	37235	United States
51173648-ccd1-40b9-a240-c3462a1187eb	462 Chive Junction	Fairbanks	Alaska	99790	United States
1de5fc73-91aa-4a88-b630-6dad4487abe2	97656 Ohio Point	Iowa City	Iowa	52245	United States
b2ae8fb1-c7d4-48a8-b131-42406bcdb45e	81874 Vernon Avenue	Washington	District of Columbia	20022	United States
91e4607c-72e9-45d5-a4a8-bf9895802c01	581 Duke Place	Fort Worth	Texas	76105	United States
b5f5e284-ffcb-4530-ba1e-37eda4131c3f	7915 Sachs Parkway	Springfield	Massachusetts	01114	United States
71a5f429-bafe-49ea-8eac-737afcf2ccab	9 Superior Circle	Birmingham	Alabama	35285	United States
507a0f25-9177-4ec8-9fb9-348d011e3715	4 Fairview Point	Rochester	New York	14619	United States
4255a722-8f9b-4c15-a4d6-8ada5bf613de	824 Ronald Regan Point	New Orleans	Louisiana	70165	United States
a571d0a9-a27b-4797-a5dc-25d1e5e8c914	63 Helena Avenue	Anaheim	California	92812	United States
522bf5a0-370a-42b4-b877-417545bb6437	081 Hagan Park	Fresno	California	93794	United States
9c9db3cf-b2a8-4921-b266-cd302ea723e6	5 Hintze Road	Saint Petersburg	Florida	33710	United States
061f4044-efe3-47e3-bd5f-4e016dc1472d	853 Sage Point	Virginia Beach	Virginia	23464	United States
107c1ff3-0f7f-4b5e-9682-0b9bd9e522c8	9169 Quincy Lane	Saint Louis	Missouri	63121	United States
610b9d7e-5b0f-4666-bbd2-3b4e9822af11	025 Rusk Street	Shreveport	Louisiana	71151	United States
d10c2ab8-5f4d-4609-9d52-0eee9b77e196	894 Hoard Street	New York City	New York	10175	United States
aac1a591-9604-4654-84ac-30f6a3a2da71	5409 Waywood Trail	Richmond	Virginia	23237	United States
56934802-ae63-465a-8301-bac08a3ae9cc	29 Maple Wood Lane	Alexandria	Louisiana	71307	United States
9ee9ce4b-befc-42b8-b11b-a670dd7b7d4f	5 Hintze Lane	Jackson	Mississippi	39236	United States
1e1aacef-eee0-455b-9954-f127bfde4b3a	62 Haas Parkway	Phoenix	Arizona	85010	United States
3754c82a-7c52-44f6-bcd7-6d3b6a155334	80455 Bowman Plaza	Washington	District of Columbia	20051	United States
24ee7d06-559b-405f-ba2e-33d4d2a7cceb	695 Shoshone Crossing	Denver	Colorado	80243	United States
cf188061-b1d6-4141-9cac-9c6c934de3da	347 Caliangt Pass	Saint Paul	Minnesota	55108	United States
abceb157-0ac5-4d52-aeed-ef984186dea3	20 Gateway Avenue	Buffalo	New York	14233	United States
97978a71-8514-42c4-9e68-a2ef9c718b82	2 Jay Place	Miami	Florida	33283	United States
199a7eaf-32ed-4b05-9620-089983751a96	702 Commercial Court	Dearborn	Michigan	48126	United States
c3be3c90-afcf-4e02-8f05-9abaae807786	79378 Starling Street	Fresno	California	93750	United States
045afd59-6587-48fd-9ac5-4b34e4a17444	6 Monica Trail	Henderson	Nevada	89012	United States
4939b821-46f7-4255-9e83-a416b0c2ac13	47 Colorado Road	Great Neck	New York	11024	United States
4d6bb9f4-4017-4413-9ce0-3ec41cffcd3e	27244 Arizona Circle	Lansing	Michigan	48901	United States
e6c2687a-847a-4e20-9a87-5d1141a87a8a	2 Scofield Hill	Philadelphia	Pennsylvania	19151	United States
487b00cc-3ac1-4234-8af9-6f884d8a23c0	87534 Warbler Avenue	Richmond	Virginia	23228	United States
138fa7a0-baae-46e1-b756-32666d3e65ca	2 Farragut Terrace	Fairfax	Virginia	22036	United States
0b8262b5-9a13-42c4-8e6c-79bcc55502f1	3 Paget Hill	Gainesville	Florida	32605	United States
a93ab639-4503-4c23-9f99-895372dc2dca	98612 Laurel Lane	Atlanta	Georgia	30356	United States
ea5b3ac2-04ab-48a9-9c7c-d29ead2f77ab	997 Hooker Drive	Clearwater	Florida	33758	United States
b80a400c-e140-4753-b2a1-6c19a9598988	8 Little Fleur Pass	Roanoke	Virginia	24014	United States
9805c6ce-ee72-42ca-a0c5-4ea666ef947f	95363 Rockefeller Terrace	Pittsburgh	Pennsylvania	15250	United States
5ed73117-3082-4a4f-b392-310b2b92210c	2 Pond Circle	Memphis	Tennessee	38126	United States
e5e52af6-c947-46ef-aa8e-70933e4d334b	72 3rd Point	Torrance	California	90510	United States
f5cef4d8-881d-4067-bd8e-64a590e34c43	15 Spenser Lane	Waco	Texas	76711	United States
57e71c4b-d422-4c1d-bff3-f135e6959b8f	434 Dryden Alley	Washington	District of Columbia	20508	United States
0de299d0-187a-4d87-b483-0175ae6035d3	2 5th Road	Lehigh Acres	Florida	33972	United States
25119078-d643-4be8-bb4c-b24d894c1091	642 4th Avenue	Knoxville	Tennessee	37914	United States
2f0319ea-6d52-4324-bfb8-9bcfaacbac38	7752 Acker Court	Erie	Pennsylvania	16510	United States
30b9fc00-b80b-478a-ba53-357972d5f78c	350 Bunker Hill Terrace	Sarasota	Florida	34238	United States
d858b7ba-fd18-4cd6-b474-e38d91269ee6	36319 Gerald Terrace	Springfield	Massachusetts	01129	United States
5e45d3f2-2b18-4f03-9d77-9906427ebd77	84097 Holy Cross Drive	Pensacola	Florida	32595	United States
570934a5-4889-47c0-a3b5-ca2bb3c8df9a	99 Sutherland Avenue	Greensboro	North Carolina	27409	United States
1d0bec9e-e536-4e08-a0b6-844479cbcede	54874 Glendale Alley	Saint Louis	Missouri	63150	United States
be75d455-c8c5-424a-b683-10e68a282e91	6 Texas Lane	Stockton	California	95210	United States
aa0c0dc4-be32-4947-8df5-fbbe51407f1e	060 Esker Street	South Bend	Indiana	46699	United States
abd23135-e60b-4996-9bbf-c4d688361704	91 Stoughton Way	Buffalo	New York	14215	United States
bbca93ff-894d-4e0b-9b03-bd7473982c0b	6506 Donald Parkway	Canton	Ohio	44720	United States
0ae60dc0-5b96-42aa-bd0b-abe3fdcbd778	41 Bobwhite Terrace	Baton Rouge	Louisiana	70836	United States
57368f38-86d4-48a2-a323-9d49b76e4120	82360 Stuart Lane	Las Vegas	Nevada	89145	United States
a153aa25-7a1f-4c44-bdbc-aa2dbfe89a9f	96942 Acker Center	New York City	New York	10120	United States
f65188b7-c720-4587-8982-3312d6477c2b	6 Moose Trail	Annapolis	Maryland	21405	United States
5182a6a6-2acd-46d5-aa4c-b08a038309f6	91 Bultman Point	Irvine	California	92619	United States
de86672f-34e9-4042-9650-3908251eadbd	9259 Karstens Avenue	Fort Smith	Arkansas	72905	United States
1ed8d6ab-dbd3-43ad-aa4b-47db5d688072	00 Northland Pass	Pompano Beach	Florida	33064	United States
33e19a96-885d-43a2-9930-677db9d89f5a	78613 Oneill Lane	Philadelphia	Pennsylvania	19109	United States
67a10559-78cd-4ac7-ab40-088a186f1114	848 Schiller Lane	Jackson	Mississippi	39210	United States
74378b7d-5271-401d-8cfa-be7ee1afa0f7	2600 Sherman Place	Syracuse	New York	13224	United States
75ee867b-e085-4ecb-b708-42f9d2729ad2	1808 Parkside Park	Shawnee Mission	Kansas	66276	United States
6f1ba8c2-5ab9-430e-abb8-44179fc15c1f	2181 Monterey Way	Dallas	Texas	75226	United States
1955af77-47dc-4420-a676-5c57ad64171d	616 Raven Hill	Berkeley	California	94712	United States
4d2b0d1f-00b8-4381-bd58-f9dd3053662f	768 Packers Lane	New Bedford	Massachusetts	02745	United States
7c85f146-1087-4b49-8306-61952d951785	2 Lawn Alley	Dayton	Ohio	45414	United States
c4b02cf0-47e7-4c0f-912f-e2c6397079db	647 Corben Trail	Harrisburg	Pennsylvania	17105	United States
52f8a71c-42f2-4a82-80f3-1c7d994ee09c	915 Loomis Trail	New York City	New York	10110	United States
17c976f8-5cf6-4876-8e1c-42de4fee633b	4 Meadow Valley Way	Seattle	Washington	98133	United States
194d7b44-05f5-45cd-98f6-5b1a3ed2f61f	3 Morningstar Center	Davenport	Iowa	52809	United States
f04558c4-b51e-4adf-b121-db1475aebf5c	6 Gina Crossing	Bronx	New York	10474	United States
0eb92ce3-b285-4b17-a490-b86d04e3457d	2 Grasskamp Point	East Saint Louis	Illinois	62205	United States
7ca94acc-b9a3-446f-9cf9-17fdbeefb36a	433 Petterle Trail	Boston	Massachusetts	02208	United States
9bceb58a-2dba-40bf-95b3-19c5855b4d01	5 Maryland Road	Apache Junction	Arizona	85219	United States
772b9399-f5c7-42ae-bd5e-6a14a1e225bb	9248 Bowman Hill	Washington	District of Columbia	20005	United States
1d27b170-77de-4d8a-ae63-90ed9211983c	01 Summerview Alley	San Antonio	Texas	78230	United States
54037fa2-8984-400a-b585-d75798b8007c	850 Farragut Alley	Oklahoma City	Oklahoma	73104	United States
6b24dadd-6537-413c-b25d-a2bdef3aa4db	51059 Ryan Circle	Savannah	Georgia	31422	United States
76b97761-711a-451f-92e7-7df9d3aa1e13	4 4th Circle	Atlanta	Georgia	30328	United States
4b969f46-bfde-49d7-a79a-de8734a0db55	34 Ronald Regan Way	Orlando	Florida	32891	United States
a6abe905-989f-42d9-8453-ad81716bd826	49 Ryan Parkway	Boulder	Colorado	80328	United States
2d7db30e-46c4-4405-96ba-1e2fc3d6fa8e	7686 Dexter Junction	Denver	Colorado	80228	United States
c0f3b38d-3c2e-4c29-a6ca-47a85951e2ad	41 Utah Crossing	Chicago	Illinois	60636	United States
cbdbf321-86d3-436f-a9c0-734edb1828a9	8 Londonderry Plaza	San Antonio	Texas	78210	United States
abb55461-dee1-4081-baf3-677540219342	236 Warner Center	New Bedford	Massachusetts	02745	United States
efd76164-8e10-4c2b-ba5f-95adc4f381c2	9 Ruskin Terrace	Birmingham	Alabama	35254	United States
3ada4327-b6a3-4fd4-aa04-042c6a8254d0	38168 Bashford Way	Palm Bay	Florida	32909	United States
5804a252-b47e-4d05-b0d3-ffa4f3228c63	242 Rockefeller Junction	Sacramento	California	95828	United States
7812be13-78b7-4d55-92f9-f2b417b80cb0	27 Maple Wood Avenue	Greensboro	North Carolina	27455	United States
9d53b2c1-3d1f-4a30-a9fe-fc8427399e32	7886 Fordem Road	Nashville	Tennessee	37210	United States
11a3f91e-f4ed-446b-b736-130b86579c42	05462 Sherman Crossing	Rochester	New York	14604	United States
41d9fdf9-b408-4be4-a28d-f110ca218b7f	2 Gale Parkway	El Paso	Texas	88574	United States
17968ff1-acb0-4529-a1c7-cb6e83b3f56a	7 Autumn Leaf Alley	Pompano Beach	Florida	33075	United States
1325dc11-a5e1-423e-9726-4c8fa627b552	98004 Ramsey Road	York	Pennsylvania	17405	United States
ab6e8eaa-76c0-4600-b392-6aebb915b5c1	4 Columbus Junction	Kansas City	Kansas	66160	United States
dc031cac-7434-4de1-a7bc-14579d56cf6a	9 Mcbride Lane	Jacksonville	Florida	32225	United States
02cebddb-a602-4461-bc94-cfbffe038b1d	456 Hauk Hill	New Orleans	Louisiana	70179	United States
d8748ff2-0bca-4f76-8240-2b90eee09f2b	56083 Drewry Drive	Springfield	Illinois	62776	United States
70778eb1-a594-433f-9b7c-b7c1ebb857a7	7 Boyd Plaza	Atlanta	Georgia	30375	United States
357205bf-09d4-4bfb-b6ca-3c0ff42f76c0	826 East Road	Charlotte	North Carolina	28256	United States
0b735311-339e-4d56-b4ff-08f507e9d195	12 Eastwood Hill	San Luis Obispo	California	93407	United States
dd15023f-6020-4e97-ac38-3f9fa6a1815b	647 Hovde Road	Stockton	California	95205	United States
7bdc46d9-61f0-43e1-bca4-c3152e31d403	09 Truax Circle	Ogden	Utah	84409	United States
aadce628-d653-4d71-9d41-d400ffe4c61f	6989 Hanson Parkway	Tucson	Arizona	85715	United States
ddd0ef2d-5580-4e15-ae97-4838ab73b86d	83 Heffernan Junction	Fullerton	California	92640	United States
f7469afd-cbda-402d-9e31-f738e04b42da	72 Ohio Plaza	Nashville	Tennessee	37215	United States
1cf47c6b-58bb-4f47-9442-f0ed1cfd6db9	7804 Sachs Point	Roanoke	Virginia	24014	United States
0f3bce3d-1a43-41c8-88bf-9e9b8da358fe	7 Garrison Trail	Grand Rapids	Michigan	49505	United States
c9c3810a-e588-4275-97fb-68d4ea563c1e	110 Clemons Alley	Fort Pierce	Florida	34981	United States
b06aa677-9855-4502-8049-00df73e4d469	42431 Mesta Hill	Lincoln	Nebraska	68505	United States
4c6c7853-c1c0-4db7-83c5-93a85e15838e	5150 Mayer Street	Honolulu	Hawaii	96805	United States
7cca660e-3622-4b83-a5ab-b4d1a763a22b	40 Victoria Alley	Albuquerque	New Mexico	87201	United States
fe31964e-0781-4120-b44d-78a91c28ac65	11 Talisman Alley	Santa Ana	California	92705	United States
c434178b-3c72-4478-a125-997bd2b322f2	6 Goodland Crossing	Birmingham	Alabama	35220	United States
33362fb3-dca5-4401-924c-f98737bd5a3b	7389 Grayhawk Terrace	Brea	California	92822	United States
72cf21bc-e373-49d6-8916-c6c00b262ff1	280 David Way	Philadelphia	Pennsylvania	19160	United States
8c7a4221-c3b4-45e2-9f69-d9706b571db1	9186 Macpherson Lane	Charleston	South Carolina	29411	United States
248cf459-dc43-4108-a701-6aeca202da5d	3 Buell Alley	Chicago	Illinois	60681	United States
b0e06c02-1f98-445e-a78d-901f554e56fa	5 Fieldstone Pass	Tampa	Florida	33625	United States
4d451db0-8eb2-401a-b3fd-88ded09caac6	9 Talisman Parkway	New Castle	Pennsylvania	16107	United States
5f4b03a7-1a86-4c13-bcc6-128dbdb3ebd6	4 Darwin Street	Laredo	Texas	78044	United States
7ea4d961-4f58-408a-82d3-11609672f06d	674 Scoville Crossing	Houston	Texas	77055	United States
014c3fd3-0853-4c42-af58-4f526fa20b48	87976 Corry Court	Peoria	Illinois	61640	United States
acf47b32-a36e-465c-94c0-943d4fcb1e2e	80594 6th Alley	Oklahoma City	Oklahoma	73104	United States
95bd3cc9-4ea6-425d-b65c-d84e6da7c086	3387 Buena Vista Drive	Jackson	Mississippi	39236	United States
102a66cc-117d-44da-8f68-e196396cb0e3	47290 Pankratz Alley	Portland	Maine	04109	United States
a3683930-85b6-492b-9ac2-2685b2650acd	8 Little Fleur Pass	Allentown	Pennsylvania	18105	United States
6117ffd0-55c3-4761-bad3-5bdea12b699a	71 Boyd Terrace	Honolulu	Hawaii	96845	United States
bbe20e64-165a-4650-9d74-c855f7cfa015	7918 Lerdahl Trail	New York City	New York	10170	United States
7163b18f-72ba-4067-b885-52f7959ac1ab	2 Superior Crossing	Jersey City	New Jersey	07310	United States
2864e3cb-5588-4d67-be50-8cd6d0eb3977	4272 Westridge Park	Bowie	Maryland	20719	United States
31278a09-c6f6-4cf4-a67a-682039add4ae	867 Northwestern Court	Jacksonville	Florida	32244	United States
f052f5f4-b05d-4726-a1e5-ba8d937e5a16	660 Mayfield Place	Saint Petersburg	Florida	33731	United States
24cb1b33-803d-4634-8062-facbab56db6e	2 Chinook Center	Louisville	Kentucky	40280	United States
ddb8b49f-6b0f-442d-8fb3-60c10d9a399a	750 Utah Court	Roanoke	Virginia	24020	United States
7380ff1b-3e22-4292-9d40-dc73c885b340	72 Clemons Plaza	Orlando	Florida	32803	United States
8f951a2f-d8ab-4014-9c0d-506f5fb83eb4	75 Maryland Plaza	Canton	Ohio	44720	United States
4b1112f9-dc25-4144-a364-35b54edf6d47	2 Union Court	Worcester	Massachusetts	01654	United States
20d8e326-794c-438a-805d-7c6b5d11df6d	41 Fairfield Alley	Phoenix	Arizona	85083	United States
c3586d05-1693-4bd2-8681-a1549cb235d5	2809 Graceland Trail	Akron	Ohio	44315	United States
b096c5ef-e5f9-4d3c-8ece-1212f746d007	32559 West Crossing	Tucson	Arizona	85720	United States
776ddd30-f2b0-4b94-b9da-8d80806e6b98	845 Washington Terrace	Dayton	Ohio	45403	United States
8164db53-f3a6-43a9-8cbb-be6d71956305	20 Killdeer Road	Laredo	Texas	78044	United States
1f2fb82e-3c3f-4697-bb35-cf2a8197523e	4430 Kensington Terrace	Santa Ana	California	92705	United States
3d6556c3-b5c0-4167-9294-130e92840963	0 Anzinger Center	New York City	New York	10034	United States
a464c307-0b60-4fd2-b66f-55ac06a953d0	5505 Russell Parkway	Arlington	Virginia	22234	United States
be50f18b-56bb-474e-b864-4ae7c44d8650	9 Butterfield Trail	Nashville	Tennessee	37220	United States
d970cddb-4493-4d02-b83b-522b2d9d802b	07 Commercial Pass	Washington	District of Columbia	20442	United States
564e1466-ec81-450b-b0d4-587ba5164256	81020 Gulseth Drive	El Paso	Texas	88530	United States
1e98b49f-ba33-4588-9f56-350081f9780b	9539 Tennessee Park	Seattle	Washington	98115	United States
11791cba-44bb-4859-9a96-40c8c7b81d34	3277 Hovde Road	Tucson	Arizona	85720	United States
ce219948-3337-4209-86f9-5ed58135b99b	48282 Oakridge Place	Little Rock	Arkansas	72231	United States
72c17e64-3a6a-4840-a0be-0930ed04be30	86559 Melvin Junction	Raleigh	North Carolina	27635	United States
eafb6751-15ca-409f-a894-4cc6651ae457	98 Knutson Plaza	Oklahoma City	Oklahoma	73197	United States
3fbaccd0-f731-4ddb-ae4c-f6d5eea63b05	9874 Warrior Pass	Hartford	Connecticut	06145	United States
1517aeab-e409-4e97-aee1-32248189b4a2	43411 Burrows Park	Cleveland	Ohio	44197	United States
7b0913b1-ea47-46d2-a5a0-c03a84e04e36	63 Del Mar Parkway	Fort Worth	Texas	76192	United States
1e508a83-c738-4d3b-a9ca-18ce4f2a6cde	27 Melody Court	Birmingham	Alabama	35225	United States
cac52963-acce-4499-a58e-7c530b6168f1	886 Little Fleur Lane	Detroit	Michigan	48242	United States
80753535-0c5c-4d46-9ed4-0c235eeec530	3967 Declaration Plaza	Houston	Texas	77293	United States
65cbee37-b421-4d90-9d08-60c14bce3a84	0 Doe Crossing Drive	Clearwater	Florida	34629	United States
765b4daf-6318-4fa6-a45a-a06f895088cf	7374 Gina Drive	Glendale	Arizona	85305	United States
19436f0a-5aba-4c6b-9009-5881f2c7a4bb	3 Talisman Avenue	Appleton	Wisconsin	54915	United States
0563abb4-b374-4ba0-8ca1-d45fbbfae819	02580 2nd Drive	Honolulu	Hawaii	96835	United States
b7f47a73-b05d-419c-b6c9-222c557f422a	63987 Huxley Trail	Atlanta	Georgia	31119	United States
72d8ee29-7618-4f37-9005-f29b5e8f35e5	4 Milwaukee Road	Sacramento	California	94263	United States
8c36c064-871b-42a8-b723-7ce08f787367	82 John Wall Park	Jacksonville	Florida	32215	United States
c0b6d711-b4e8-4539-905c-ecf4752c4e74	309 Coleman Alley	Washington	District of Columbia	20205	United States
2eda614f-a726-4c7f-8fc9-799cc9b6e34c	6 Shelley Pass	Fort Worth	Texas	76147	United States
b1c9ce18-3a0c-47fd-9973-e490eaddbd57	1247 Green Ridge Lane	Erie	Pennsylvania	16522	United States
0839a73b-1a7c-418b-bebe-688872d0810f	19 5th Avenue	Metairie	Louisiana	70033	United States
c118f6cc-7525-4dfa-99b1-4f16675fcdf9	43482 Stoughton Plaza	Erie	Pennsylvania	16510	United States
f3062b62-b3d6-4d2b-af62-bb9ad8c9144e	6512 Texas Hill	Portland	Oregon	97271	United States
028876f2-dcf2-48fc-ad31-18bd4ec670b5	6724 Farmco Place	Bismarck	North Dakota	58505	United States
b47ee490-008d-44b3-862b-f971a9523c15	58586 Crescent Oaks Crossing	Tampa	Florida	33633	United States
efa38341-6342-4e97-a6e1-6a9b21a79ea8	17 Sutherland Drive	Boise	Idaho	83732	United States
cddaa1e6-7711-4e9f-b52e-5b0fcb8cf3a4	5 Drewry Terrace	Arlington	Texas	76016	United States
1429807e-894f-4be3-9a31-f27e06bb86f7	1 Dennis Crossing	Salt Lake City	Utah	84130	United States
dc9b0e11-3ed6-43a9-b9d0-9445c89c9811	99 Dahle Point	Pittsburgh	Pennsylvania	15220	United States
786f5f68-aa9c-4492-9291-74afac80ee6a	09613 Old Gate Pass	Fort Wayne	Indiana	46862	United States
38bafd4d-0a44-482f-8cf6-d673a35a90af	404 Troy Hill	Crawfordsville	Indiana	47937	United States
0b11f979-c9b5-4c39-bb54-8feb6798a540	3 Burrows Way	San Francisco	California	94121	United States
bfed55c3-4745-49d8-bcad-1cb6ead0e436	85 Reinke Crossing	Saint Louis	Missouri	63158	United States
444d5e1f-75be-48d5-899b-86adaf8345e0	9 Bunker Hill Lane	Glendale	California	91205	United States
32474f82-c014-480e-a232-6756605c3495	10 Mcbride Plaza	Columbus	Ohio	43231	United States
9507624c-b71c-4027-ab4f-0f55ca4aea5d	8660 Eggendart Hill	Minneapolis	Minnesota	55480	United States
414cbae8-5b4e-4118-bdb8-6a5ebc9b39ee	3 Messerschmidt Plaza	Atlanta	Georgia	30375	United States
557630b5-fa86-4e48-b607-1412a04f074b	8 Mendota Alley	Largo	Florida	33777	United States
241731e2-ec9e-42b8-ae46-c717578067b7	7 Pierstorff Place	Des Moines	Iowa	50310	United States
fd86ae5a-dc3e-4315-b2b1-0d54f25d588e	78682 Steensland Road	Stockton	California	95210	United States
000c9271-9d15-4737-a624-46198d3c3161	5571 Carioca Crossing	New York City	New York	10024	United States
b679e7a1-4397-457f-a6f6-3fd639df13ed	7 Arapahoe Hill	Colorado Springs	Colorado	80945	United States
11997b90-3b86-406d-b990-7263ff856b32	3 Luster Pass	Washington	District of Columbia	20067	United States
5f1cb3e3-328f-4624-99f6-c4263974e54f	01331 Bartillon Road	Birmingham	Alabama	35244	United States
47281487-5eab-43e6-8bef-f5121573e6a8	877 Esker Way	Green Bay	Wisconsin	54305	United States
1b389223-13cb-4ad7-9d9d-209b5dccf88c	0 Esch Junction	New York City	New York	10170	United States
30ac6740-e63a-4144-8f56-0ea56243430b	23887 Northridge Drive	Indianapolis	Indiana	46221	United States
3cd8817b-91b0-4a5f-b2ff-2090c5e88a9c	72 Melrose Pass	Gainesville	Florida	32627	United States
fb8bdd45-9d46-4348-a858-dabad5e3f0d1	23698 Spohn Alley	Tulsa	Oklahoma	74149	United States
1d3b4347-39d1-45e7-8fc0-5466987aff8f	80 Cherokee Plaza	San Jose	California	95194	United States
0e0ef360-c7e0-4e8a-82ee-7a866c51d4f8	5 Stuart Road	Los Angeles	California	90071	United States
06d43f99-a2d5-48a4-b995-6b669c3ee00c	58 Fieldstone Lane	Dallas	Texas	75358	United States
24b07903-708a-446d-a55d-2b53ca5268f8	921 Arrowood Drive	Metairie	Louisiana	70033	United States
83a9950f-bd16-471b-a9a1-0c5758ec1cae	6071 Hovde Plaza	Toledo	Ohio	43610	United States
db887bfe-c37d-4b4f-a52b-bb2a4f4f01b3	9336 Ridgeview Hill	North Las Vegas	Nevada	89087	United States
e043aa96-c120-4e59-a11c-cdf969647925	8 Pleasure Hill	Vienna	Virginia	22184	United States
008fca0c-3c1b-4a7b-a040-4404f22a829a	2 Vernon Alley	Fort Wayne	Indiana	46825	United States
0c32bed6-c9c6-4884-bdb4-56996ef1d871	902 Fisk Junction	Birmingham	Alabama	35215	United States
c974d9c6-f353-4590-beac-0bcd0ad1e8ce	848 Caliangt Center	Ventura	California	93005	United States
7518c80e-3371-4a29-a696-9cfd6a156eb6	539 Coleman Park	Inglewood	California	90398	United States
f2a94b61-8954-4ae0-810d-8f88a58c717e	698 Jay Point	Des Moines	Iowa	50320	United States
e43d534e-f7dc-44bb-a4f1-06fbdce26337	5892 Ruskin Way	New Orleans	Louisiana	70183	United States
7303b868-0ba7-46f3-bc9f-5f3314ed44d2	8114 Del Sol Center	Phoenix	Arizona	85040	United States
068305b6-0142-4a9b-a5ed-a85ee6de70b9	4 Glacier Hill Alley	Saint Paul	Minnesota	55166	United States
7fe322eb-6eed-4ec2-8877-f9ec6bb2e214	9 Dwight Way	Bethesda	Maryland	20816	United States
b310dd28-dbbf-4473-8e8c-0c5a9fe66621	2 3rd Parkway	Dearborn	Michigan	48126	United States
935e3370-138f-42a3-a43b-46e1429600f4	79 Forest Run Pass	Colorado Springs	Colorado	80951	United States
11b77c94-314a-4c06-9f9f-fb55b82f6a2c	02192 Messerschmidt Drive	Los Angeles	California	90101	United States
28af880a-37ab-40c1-b7d7-91d46beab27f	7023 Golf View Alley	Youngstown	Ohio	44511	United States
1bf0097b-31d3-427a-a5d4-affae1acae6b	9274 Dawn Park	Sacramento	California	94237	United States
acd2615c-a7c4-4188-b2bc-1a788dbdb57d	8 Forest Run Junction	Wichita Falls	Texas	76305	United States
b291921f-ae01-4d77-a381-4102c4246a97	421 Anniversary Terrace	Orlando	Florida	32803	United States
cabe5762-dfe6-4670-95e9-c56373baf3a6	108 North Junction	Saint Paul	Minnesota	55115	United States
701ba58f-d963-48b2-aa51-a3eaca05740f	696 Novick Lane	Washington	District of Columbia	20268	United States
942917f0-8e2f-4e2b-8295-14a3a08ff21f	133 Gateway Hill	Augusta	Georgia	30919	United States
a9ba7b24-71ee-42a6-a09b-89a2784b1b8c	747 Lunder Road	Irvine	California	92619	United States
8958e0d3-31f9-4e52-b9f4-da7ec3dd63f7	672 Butterfield Street	Saint Louis	Missouri	63126	United States
ecab5b7f-c727-4efb-92ec-db441709aff6	89480 5th Place	Naples	Florida	34108	United States
d2d55961-dd23-4557-983f-2aeb0ca5ef22	4 Dawn Place	Denver	Colorado	80228	United States
62a218fc-11f9-411f-9cb3-b097d43c8649	0 Lillian Park	North Hollywood	California	91606	United States
736af807-4704-453e-acd1-8e6412f5dd20	50 Colorado Road	Albany	New York	12255	United States
44d3e668-0c7b-4c4a-9408-08acf19af031	389 Bonner Junction	San Bernardino	California	92405	United States
dd67185e-f88a-4852-88dc-b43644d895a1	62 Portage Point	Colorado Springs	Colorado	80935	United States
84fd4d18-4e5f-4b8c-9637-a43fc26edca3	67755 East Plaza	Houston	Texas	77085	United States
eb9e8ea1-70be-46fe-aaf2-43ff75b2f3bb	097 Browning Crossing	Rochester	Minnesota	55905	United States
7c67576b-8051-4586-b90b-fd45ad24f5f6	92537 Redwing Avenue	New York City	New York	10029	United States
ac56d15d-9970-4699-8c86-6f33b1184295	1 Menomonie Crossing	Monticello	Minnesota	55590	United States
569aaae0-5e45-40c7-92de-4643df4b1f54	4 Goodland Street	Norfolk	Virginia	23520	United States
9d724f45-b76b-4fde-914b-326001e61c2b	86311 Talmadge Crossing	El Paso	Texas	79940	United States
8ab39a41-421c-4141-9dcb-e10b0c4006b5	63599 Little Fleur Court	Tulsa	Oklahoma	74193	United States
e473e127-21e4-4af4-a1b9-2c921f232518	7679 Parkside Center	Washington	District of Columbia	20525	United States
f22c77f5-7a37-4758-9550-547bc3fb3bbe	91 Butternut Parkway	Topeka	Kansas	66606	United States
83932ad3-03eb-44d0-8ced-dc458f8c0645	52 Marcy Terrace	San Rafael	California	94913	United States
96f77e60-61b8-45a3-b401-c0c9bb004920	4998 Weeping Birch Parkway	Houston	Texas	77206	United States
b2ba8d90-7a48-4476-be1e-105eecdb74be	17 Huxley Way	Fort Worth	Texas	76105	United States
7706d023-e5d5-4419-8272-5fd030e902db	97306 Dayton Circle	Chattanooga	Tennessee	37405	United States
4a50e9bb-dc18-458f-827a-b14f17ca3420	678 Kipling Lane	Waco	Texas	76705	United States
e3b17f23-b532-4f21-9dae-a85097f8e7fb	92500 Morrow Parkway	Anchorage	Alaska	99507	United States
f5de0f84-f7b0-4d63-ba63-3b9b4b393ff7	7 Dottie Trail	Chicago	Illinois	60619	United States
bd26e9f8-f4b2-4cf2-b93b-9ea1c4409086	4 Summerview Place	Tampa	Florida	33615	United States
dd6712df-8d23-46ca-b8b8-c9d9e938412b	11 Mandrake Plaza	Dallas	Texas	75392	United States
b32a1827-4efd-4f4f-bc25-8cfac5d84b9c	8 Warbler Street	Stockton	California	95205	United States
3f388b4f-9365-4a84-bfca-37a7b9e9deaf	94 Stang Road	Indianapolis	Indiana	46202	United States
f85980fe-7656-41f6-9899-904561625bdc	3 Starling Parkway	Alexandria	Virginia	22313	United States
900cc200-9f0c-4a98-9f3d-1ce301c73610	2467 Hovde Crossing	New Orleans	Louisiana	70149	United States
69a29fbb-536b-4fc4-a332-4d1cb2cf9679	0 Northridge Way	San Diego	California	92160	United States
87264a8f-e5f6-40f8-82d0-8674b61819d7	95 Kings Plaza	Milwaukee	Wisconsin	53263	United States
3237c192-dad8-4abc-b366-84744ee6811b	60 Hoffman Parkway	Wilmington	Delaware	19897	United States
120c9170-064f-43b5-8ccb-289aca90e448	91006 Schiller Circle	Birmingham	Alabama	35254	United States
c13b9c64-e027-4bd5-8237-8d9aeed5b557	31007 Onsgard Circle	Boston	Massachusetts	02298	United States
a3aececd-e096-4d4d-9ebd-630fcd2e9a5e	750 Trailsway Center	Roanoke	Virginia	24048	United States
f6db26f8-2b7e-4c01-ad84-734f65263d14	537 Stoughton Alley	New York City	New York	10203	United States
7051ed7c-8051-4f7f-92a4-bc19567d29f2	17 Lakewood Crossing	Oklahoma City	Oklahoma	73135	United States
9c3f83b7-fd2d-4cdc-a077-54bf8da4bcec	881 Lerdahl Lane	South Bend	Indiana	46620	United States
a0907f5d-457f-421c-9a4e-ce88187d4390	462 Ilene Terrace	Mesa	Arizona	85215	United States
bf8816da-c92f-432e-9b6b-4a88e8e6560b	3174 Schlimgen Drive	Amarillo	Texas	79116	United States
dd138cd6-61e6-42d6-ad02-1042f97f7f1d	80708 Sunbrook Way	Racine	Wisconsin	53405	United States
6a48fbc3-c405-4709-9f3e-07dc5fb9584f	116 South Point	Washington	District of Columbia	20503	United States
c3c85e24-b12f-444b-bdc7-650e1125ed9d	28 Rigney Court	Punta Gorda	Florida	33982	United States
3b1f180a-ef66-4b60-9e76-14149a8959bb	687 Banding Lane	Chattanooga	Tennessee	37405	United States
8cdd9a2e-a348-404a-b9c1-8aa71db68556	76 Nancy Point	Atlanta	Georgia	30356	United States
be6476c9-244e-4641-8d1f-18f94a49d78f	6 Independence Circle	Memphis	Tennessee	38119	United States
ce43e4d9-1564-456b-88b4-8d9e63080a1d	5407 Manufacturers Center	Kalamazoo	Michigan	49006	United States
d49f6686-98fe-4374-8710-593701ccb88a	1 Comanche Street	Duluth	Minnesota	55811	United States
33de657c-89f0-4fc8-a9ff-ae0240a0a199	49981 Buhler Lane	Toledo	Ohio	43666	United States
fa02f162-27f9-40e5-a5af-3ba54e015e56	871 Debs Road	Pittsburgh	Pennsylvania	15274	United States
010a8ba4-44bc-409f-ab4e-01d4d69ef875	88 Melvin Avenue	Denver	Colorado	80235	United States
e8c425dd-dfd9-49bc-a071-6b8dfc47f695	812 Oak Valley Street	Dallas	Texas	75236	United States
e6d72ddb-b579-4dc5-bc7f-ee16b319ec42	4958 Manley Crossing	Tucson	Arizona	85720	United States
44c23899-d31f-4ea8-9cd9-938819107d27	780 Scott Park	Houston	Texas	77025	United States
ae19e10e-7303-46d3-9f78-7ae182fc93b2	8458 Northview Lane	Terre Haute	Indiana	47805	United States
bdd59a9d-3020-4652-bc60-b46e1d964054	0 John Wall Circle	Jacksonville	Florida	32225	United States
f218b990-2f23-4e9a-b037-b68549f80e12	336 3rd Trail	Fort Wayne	Indiana	46805	United States
acb3f53c-db42-405b-a5fa-57eb18db2281	07708 Marquette Terrace	Erie	Pennsylvania	16550	United States
0c2b97c0-9c3b-4b07-8233-a0df60272f06	1826 Anhalt Trail	Roanoke	Virginia	24014	United States
a76884e0-dd9e-4fc0-a581-1797eaf023ff	31705 Swallow Plaza	Jacksonville	Florida	32244	United States
ade2f969-7c21-4fc5-8c45-4492a5bbca06	1222 6th Terrace	Oklahoma City	Oklahoma	73167	United States
935da195-8ef2-45b8-9fac-7bf0f4a52714	90 Miller Trail	Indianapolis	Indiana	46239	United States
9a8c0659-4a06-4208-8a83-3f284ba36704	085 Dahle Way	Savannah	Georgia	31405	United States
2a8e3a4d-53a7-4af5-aeed-3f4a126eeab3	448 Hoard Way	El Paso	Texas	88525	United States
208815aa-a630-486f-a75f-bd2b458024f2	16834 Coleman Plaza	San Diego	California	92186	United States
b02b7069-ddd4-4e03-b242-64b51c878737	1 Chive Place	Jacksonville	Florida	32225	United States
c595ed02-bf42-413d-8829-8674cb8e5d86	409 Alpine Parkway	Erie	Pennsylvania	16505	United States
806e45a7-370b-484a-8ccc-0f89a8b23085	960 Crest Line Avenue	El Paso	Texas	88519	United States
8d8d2b6c-8842-4002-97e0-5c742af77cf6	98 Summerview Crossing	Virginia Beach	Virginia	23471	United States
38defe94-e969-4f48-99d0-523e0570670b	83651 Scofield Way	Indianapolis	Indiana	46216	United States
f4b0261d-085a-43b2-88e6-8c66308a76c0	698 Summerview Lane	Jamaica	New York	11447	United States
d4ce7d92-bf55-4570-9625-62c4723821ee	7886 Schiller Point	Macon	Georgia	31210	United States
426e584c-80c5-45ae-b909-47a2e322b9e0	7119 Warbler Pass	Vancouver	Washington	98664	United States
9428d6a3-ba91-45a8-80d4-4c1169d3e346	971 Anderson Court	Orange	California	92862	United States
a1c3ee6d-921f-4a59-bc34-0fd7e305ab83	8800 Delladonna Road	Tallahassee	Florida	32314	United States
1be188ac-5a4a-43ff-b313-78a228418a08	46 Manley Alley	Pompano Beach	Florida	33064	United States
1bd9e1f4-bebb-4253-b010-eae26b2e4d84	29883 Eggendart Terrace	Fresno	California	93704	United States
99b71932-d882-447d-91d6-c4551d91b9d2	55 Emmet Pass	Albuquerque	New Mexico	87105	United States
075b2028-f83a-4b53-bf3c-6ee26d3a6400	34522 Northport Center	Roanoke	Virginia	24024	United States
9f425f77-4d10-42b7-9289-b1995756c75a	2492 Moose Trail	Glendale	California	91205	United States
13411ae7-60f9-4417-8229-00f90d54ece7	3 Parkside Center	Indianapolis	Indiana	46239	United States
e1bace8c-9f2c-44f6-9a11-f59bd106953d	677 Prentice Drive	Clearwater	Florida	33763	United States
e3f86744-1360-4317-8608-4b018d34ef6f	66434 Delaware Lane	Newark	Delaware	19725	United States
e1c4fa8d-4919-4dff-b269-f7b589b6920f	4526 Marcy Alley	Fort Wayne	Indiana	46852	United States
f1537df1-2951-4c97-a659-31b4000ae203	73 Saint Paul Crossing	Santa Fe	New Mexico	87592	United States
684394ad-fbc3-4453-b1df-5ef623705a71	10 Village Green Pass	San Francisco	California	94121	United States
a4dd2a55-b207-4a56-9706-1c486f0663f9	7333 Arizona Terrace	Cincinnati	Ohio	45238	United States
f443b07e-79df-44c1-9f92-dee65abf1dd4	212 Bunting Point	El Paso	Texas	79999	United States
3d071175-6707-4426-bfcc-ae02737bce8e	59959 Sutteridge Park	Springfield	Illinois	62705	United States
406d0e24-7725-4921-aaaa-57e8e7dcb6dd	2182 Jay Point	Roanoke	Virginia	24024	United States
801a586c-cffe-4ccc-a6fa-fc4b7958714f	38097 Chinook Place	Chattanooga	Tennessee	37450	United States
f3692935-aa10-4d92-8901-e81465c98254	31 Southridge Parkway	Saint Paul	Minnesota	55188	United States
f7ab4769-938b-4fdb-806a-ebb8561ccef1	00 Cardinal Plaza	El Paso	Texas	79989	United States
b3fc7cbb-b1f2-4f90-a063-8455acdb9955	1 Kinsman Park	Beaumont	Texas	77705	United States
c0e76c52-7096-4257-9809-567eb96a6737	1954 Northview Parkway	Fresno	California	93750	United States
7d457e35-4595-49d6-9e99-672f9a2bf6f4	3187 Green Ridge Court	Sacramento	California	94207	United States
7ec6a131-435b-4479-b119-d59d9557d158	78402 Corben Crossing	San Francisco	California	94177	United States
c03b322e-7585-49b8-96a2-3fa098c18519	01145 Monument Way	Beaverton	Oregon	97075	United States
54435c3d-1fef-4609-9db3-3749c8635c4a	8725 Armistice Street	Charleston	South Carolina	29403	United States
fa6fd877-26c2-4c4d-b9ee-660d0edbc3a8	702 Sauthoff Avenue	Denton	Texas	76205	United States
7c1cf672-3d52-4a20-b406-7a2cf64ad580	48028 Chinook Pass	Clearwater	Florida	33763	United States
3a2ba5e6-a34d-4826-a4aa-e7d80866a88d	5 Warrior Court	Arlington	Virginia	22212	United States
bae79a8a-17d7-42ea-96f7-863ea3f3b444	1973 Westport Parkway	Montpelier	Vermont	05609	United States
2e27891e-397f-4615-b74b-68337aa4e0c9	545 Muir Lane	Montgomery	Alabama	36119	United States
f5437087-1aa4-409d-a384-85c8c77144d9	8 4th Way	Anchorage	Alaska	99507	United States
e96d0dc0-bda4-4fd1-85cd-6603434b22b0	88 Buhler Street	Springfield	Illinois	62711	United States
d437c056-2af8-4479-b653-863760a995f5	8 Sunnyside Drive	Indianapolis	Indiana	46207	United States
445e90fa-acf0-47f2-bb81-fafd0fc3aefb	875 Waxwing Terrace	San Francisco	California	94147	United States
d61d03ea-700f-4a15-9989-745579da3773	37 Melody Plaza	Montgomery	Alabama	36177	United States
8fb97cbd-ee95-463c-a7a6-bd918059b029	0 Colorado Alley	Portsmouth	New Hampshire	00214	United States
8d68864b-4eaf-4ed5-97e7-de22b44aa583	15226 Red Cloud Pass	Mobile	Alabama	36622	United States
4cce3ee6-7168-4ada-863f-9719b718fe9c	768 Hoepker Point	Worcester	Massachusetts	01654	United States
68f3f56d-2bf7-45d7-be18-caa150874b51	5 Namekagon Crossing	Des Moines	Iowa	50330	United States
391301cb-d878-4d93-91b0-4870ae50aa4e	5 Main Parkway	Columbus	Ohio	43231	United States
09886295-5590-4f72-b968-7d63a32a3de6	26815 Jenifer Road	Marietta	Georgia	30066	United States
94730426-448e-45dc-8493-6b13911a787a	08 Burning Wood Hill	Jamaica	New York	11470	United States
91aae15f-1295-471b-8a57-2f9a8d5b161e	76 Ohio Way	Shawnee Mission	Kansas	66210	United States
ce90c8f6-0d35-4004-bf25-6df237ed8b34	409 American Ash Drive	Philadelphia	Pennsylvania	19109	United States
dba6fcc2-392f-49d0-9869-95df2c678bfc	18 Mcbride Trail	Washington	District of Columbia	20057	United States
f4a80632-a467-48d6-bf94-217c4bc1d4bc	7 Logan Street	Boston	Massachusetts	02298	United States
46856b9b-42c4-41a6-89fe-c9c1ce3e4775	772 Dayton Lane	Bakersfield	California	93381	United States
4f340c78-8dd7-456c-9262-46acbdac52ea	6 Warrior Drive	Minneapolis	Minnesota	55480	United States
de78dead-5a08-48cb-a907-c5d9f6ca7cb4	1398 Merrick Hill	Everett	Washington	98206	United States
f50e9541-36fd-42d7-a82b-288467861b2c	63677 Sullivan Trail	Whittier	California	90605	United States
5cb9b345-94e4-4079-aa78-bce4ef0249aa	3 Vermont Alley	Memphis	Tennessee	38119	United States
7c50b12b-244a-4e31-9e82-75aa20a23ac4	0008 Kensington Park	San Jose	California	95160	United States
d98bce60-ac4a-41c8-9ed2-519e9f29bd99	4 Pepper Wood Way	Springfield	Illinois	62718	United States
ec5167c8-1922-42a8-94c6-9259059d9654	8 Hagan Hill	Kansas City	Missouri	64187	United States
e74b3e60-7350-4585-840b-e9acc74f9dcf	9 Fairview Street	Fort Worth	Texas	76178	United States
24854b29-cbcf-485c-ad57-8223e26f7dea	73483 Kensington Avenue	Fort Worth	Texas	76129	United States
f4825927-4fb3-4682-a5b1-2a7e373459f6	75 Knutson Street	Houston	Texas	77228	United States
ce56f694-c150-4d0c-9828-714f5befae96	38316 Loftsgordon Park	New Orleans	Louisiana	70183	United States
3072b176-2ba4-4474-b3cd-4e1169c1e4aa	31415 Village Green Alley	Los Angeles	California	90065	United States
2f332fd6-56fc-4559-a588-e22cc8960d00	89 Thierer Trail	Honolulu	Hawaii	96850	United States
f9e087ba-16e2-4796-b0a8-b160ceaabe54	9 Rutledge Trail	Allentown	Pennsylvania	18105	United States
b0856145-0f71-4f1e-b113-b2170b55a16d	269 Sugar Alley	Richmond	Virginia	23220	United States
f206dc0e-7913-4290-b005-0907f8df9ebe	8 Ronald Regan Terrace	Lincoln	Nebraska	68510	United States
931f7cd3-90af-4128-b964-1d3ff764d36e	90924 Nancy Court	Las Vegas	Nevada	89120	United States
830cb1b4-0887-4494-8682-59c2d81dc6ca	317 Anzinger Park	Saint Louis	Missouri	63167	United States
a1907f5b-16f8-4b8a-9940-c60e8047e5f5	99146 Hagan Trail	Tulsa	Oklahoma	74133	United States
7803cf47-0cdd-4c09-a4eb-7baa497fda1f	45141 Fuller Place	Mesa	Arizona	85205	United States
8406ad8c-499c-402a-a694-3b19af32fae9	4032 Pawling Junction	Tampa	Florida	33615	United States
3f538259-257a-4c1d-99f6-8371e61d78fe	4 Parkside Pass	Waterbury	Connecticut	06705	United States
a747606e-80b1-457a-b495-736f3dc2a474	5 Morrow Place	Richmond	Virginia	23208	United States
34c8795d-ef3b-4a05-bdbe-9967e7225226	4 Nancy Center	Dayton	Ohio	45403	United States
28f4e341-dc0f-42b2-bc11-820025fc8261	56 Amoth Junction	Ogden	Utah	84403	United States
47baf277-06e7-4089-8cfd-fc1f8b10defe	06 Sugar Pass	San Antonio	Texas	78285	United States
f9b820e2-0482-421c-87f0-a04ca7ba4651	2 Old Shore Park	Reno	Nevada	89510	United States
c33e4c73-c57c-45cd-b652-066dda1ae740	6616 Main Place	Evansville	Indiana	47719	United States
e3c11343-fcce-47a8-a2d1-7b45b5427056	70929 Iowa Avenue	New York City	New York	10090	United States
de567df3-371b-4a3f-94cc-0ee5870366b4	503 Merchant Street	Atlanta	Georgia	31136	United States
f1993aec-8309-4426-ab98-1cc676fc0020	959 Butternut Road	Dallas	Texas	75260	United States
338ee1d8-383e-4ccb-aba7-054cfb23a4aa	2451 Hoard Plaza	Modesto	California	95397	United States
c313d7ac-6b01-4671-88b9-4eec8f0c4b51	7 Pearson Avenue	Buffalo	New York	14220	United States
6b98a4e7-ce59-4de3-932e-944ea150c1d1	776 Marcy Place	Los Angeles	California	90035	United States
dc85f6ea-fd26-4b17-93dc-1cea1342f890	65317 Dixon Hill	Charlotte	North Carolina	28289	United States
7676d687-848b-4d84-a707-2f940586c020	1007 Thierer Circle	Hartford	Connecticut	06105	United States
a9c4ffb2-f1fe-47f0-bcba-89609af160fa	08580 Reinke Park	Prescott	Arizona	86305	United States
8275dd6b-5bea-4004-b8e1-3332f842f268	370 Sauthoff Park	Dallas	Texas	75226	United States
efe38df1-fcc3-499c-9889-4af5c73be289	128 Hoard Avenue	Spokane	Washington	99260	United States
0e94be9c-caf8-4ef9-804c-58e3ed1816f9	4633 Monument Hill	Columbus	Georgia	31904	United States
ea12a115-3899-48b7-923a-75d940a859e8	01 Knutson Road	Clearwater	Florida	34629	United States
95a8342c-e016-49cb-868b-e7dba85843a9	779 Mifflin Drive	Anchorage	Alaska	99522	United States
f2f8d101-5c5b-4db8-9198-0dddcda0cd45	453 Sundown Crossing	Washington	District of Columbia	20409	United States
08c0afd4-9d93-46a1-9daa-30f3f36292fe	6358 Stoughton Alley	Miami	Florida	33185	United States
18bdcdea-cbe1-4354-9534-c6ed04aa84d9	7 Stone Corner Place	Ventura	California	93005	United States
3e9d7281-bdaa-4164-99fe-cd45650811b6	37250 Forest Dale Pass	Gary	Indiana	46406	United States
a7611efb-cf7b-4183-93fa-f0a01b2d5705	488 Debra Way	Fresno	California	93773	United States
65241ecc-f658-4fcc-84de-2bdfd61eee29	65 Heffernan Place	Pittsburgh	Pennsylvania	15240	United States
de4640b8-5507-46a7-90be-14cabe7f0481	947 Carpenter Terrace	Grand Rapids	Michigan	49518	United States
e2d29d50-6c03-4244-91f2-7dbf8a40b6a4	2 Michigan Street	Hartford	Connecticut	06145	United States
0239fb43-b13d-4379-86c4-ffa924def11b	27904 Brentwood Lane	Colorado Springs	Colorado	80935	United States
99c70702-e505-4a90-8f0e-cf6c97748b64	2 Green Ridge Place	Lake Charles	Louisiana	70616	United States
cb17d0f0-3229-48f4-99f3-74003a0fbfe3	9680 Hagan Crossing	Baton Rouge	Louisiana	70836	United States
cfaf5d28-3401-48d3-a929-ba8d63d44d2f	15 Brown Parkway	Saint Louis	Missouri	63167	United States
b4ca6c5f-08fa-4d83-b38d-6c716b7df60e	10599 Barby Hill	Austin	Texas	78769	United States
3714328b-58be-43f1-9b4d-7db134a3a84c	9684 Redwing Terrace	Virginia Beach	Virginia	23454	United States
51291386-bac7-4d42-8836-ccf69e3c4ce6	86285 Onsgard Park	Des Moines	Iowa	50320	United States
71e34129-8278-403c-8362-0371a111fade	4122 Wayridge Court	Austin	Texas	78789	United States
20f4239d-c5e9-4832-99f9-1cd636af0110	1 Homewood Point	Madison	Wisconsin	53785	United States
13c543d9-56f4-417c-a70c-3426ab00049d	024 Moose Center	Minneapolis	Minnesota	55470	United States
c385d231-c7cf-4b2d-b424-be4cd1db72b8	14 Loomis Plaza	Detroit	Michigan	48217	United States
f0d3a261-001d-4ec8-8752-2d365b2caf61	2476 Monica Crossing	Portsmouth	Virginia	23705	United States
311cfd86-c81c-43e2-ae4c-0499ae2f11ec	4007 Redwing Terrace	Salt Lake City	Utah	84152	United States
9a149725-1088-42ec-b27a-ea01a8c627d8	38863 3rd Pass	New Haven	Connecticut	06533	United States
480b4550-6510-483f-b156-715309dc0ff6	756 Delaware Park	Youngstown	Ohio	44505	United States
fad399f3-6a83-4b51-a70d-a88aef397ee3	4029 Schmedeman Junction	Peoria	Illinois	61614	United States
e72e3327-b1ab-4995-bedd-84c532a3a53f	4271 Graceland Pass	Baton Rouge	Louisiana	70836	United States
a0f2ba0c-3acf-4423-aea6-04e5fe36bb15	2 Saint Paul Place	Raleigh	North Carolina	27610	United States
8bcd3898-f666-4dd9-ac8c-3279e5dc2e1e	6506 Starling Alley	Tacoma	Washington	98481	United States
063f35f6-a7a7-4c8a-995f-6a560e45ca9c	3778 Morrow Parkway	Reno	Nevada	89595	United States
5199dc09-35e9-425e-ac58-97db556e4483	632 8th Court	El Paso	Texas	79999	United States
31137ebc-013d-4c7c-848b-4e26762e71fb	79 Myrtle Park	Dulles	Virginia	20189	United States
ac5712bb-dc15-4dc1-b62f-de2b5d60f49d	200 Scott Crossing	Warren	Ohio	44485	United States
8bc1a90f-06ec-40d0-a726-ead26aeb65cd	861 Straubel Pass	Portland	Oregon	97229	United States
3dabb806-7f4c-4efd-a92a-096c5ccaffe9	89 Norway Maple Park	Columbus	Georgia	31998	United States
b9fa709d-aad1-4443-a593-274eb269a8cc	2 Quincy Pass	Colorado Springs	Colorado	80935	United States
34d52b55-bc34-442c-94d1-9652561f24e7	5 Anniversary Court	Washington	District of Columbia	20238	United States
30fc7879-310f-458e-8a58-3c95a0b4c552	73 Calypso Court	York	Pennsylvania	17405	United States
019110d4-1ce5-45e3-b80a-27d61adb2c4c	70409 Fair Oaks Hill	Charlotte	North Carolina	28272	United States
30b72c85-bbe0-40d8-9828-8b1cb1f8cc51	9446 Lillian Avenue	Lansing	Michigan	48930	United States
8a1d6002-5f47-44e5-8240-8dc916247009	85 7th Street	Cambridge	Massachusetts	02142	United States
49ac07ff-1762-470a-8b42-dabc561af476	42 Straubel Center	Atlanta	Georgia	31136	United States
4e2e55c8-93d7-4743-a112-eee6cdb30988	5 Bartillon Crossing	Fargo	North Dakota	58122	United States
a453cc76-d062-44b8-863f-200d6daa7130	9 Forest Alley	West Hartford	Connecticut	06127	United States
d2a5d398-7ec4-4670-a70c-99acfba97bfe	956 Portage Lane	Melbourne	Florida	32941	United States
8c27f7a8-09de-417c-89af-4c4af270225e	2080 Ridgeview Point	Evansville	Indiana	47705	United States
d6eeb99c-b657-4979-b465-7756a1953f09	192 Columbus Circle	Billings	Montana	59112	United States
0f15cdb1-a2ff-4250-a218-60c925d262bc	448 Dorton Court	Miami	Florida	33283	United States
78d80418-343b-4028-bde7-320f9a59bf89	7 Saint Paul Alley	Los Angeles	California	90076	United States
12f4abee-4439-40d1-8d33-2a375871b576	6 Kennedy Alley	Tucson	Arizona	85705	United States
f7b3a973-ebff-4254-9e4e-35de1cb99762	6 Golf Course Terrace	Atlanta	Georgia	30351	United States
2daf66a4-00e2-4bb3-831a-15729d448eb0	5 Hoepker Center	San Diego	California	92160	United States
21a888c4-4056-4ff2-b1e1-3baf8fc66248	9910 Morning Plaza	Grand Rapids	Michigan	49510	United States
86e1fa7c-b476-4710-bfbc-f8a90527be1b	5 Kings Pass	Louisville	Kentucky	40210	United States
fb2f2b0d-bd43-4e36-8a13-1e82c57429db	172 Fieldstone Point	San Jose	California	95138	United States
5dccf2ff-e6e6-4000-be8a-2fc6c2825647	977 Talmadge Parkway	Lansing	Michigan	48912	United States
e62992e7-aff7-4c63-8189-225692a84d99	5 Truax Street	Phoenix	Arizona	85020	United States
4dc2529c-21f7-4bd5-bc8e-387977415aed	43829 Aberg Park	Orlando	Florida	32808	United States
e955d504-7940-4317-9b7f-667f739d2897	80 Hansons Way	Herndon	Virginia	22070	United States
c3acd846-f183-4ecd-abdf-9ef6af44251a	84 American Way	Grand Rapids	Michigan	49518	United States
bc8e7e89-79b9-48df-b941-50aaaefe7574	8418 Loftsgordon Terrace	Las Vegas	Nevada	89135	United States
0ce1aebf-940c-4e68-9775-2f04e7d77b10	0 Brickson Park Circle	Pasadena	California	91199	United States
2160cc04-7c4d-4cda-9e4e-a3ef84ae3d8a	96711 Messerschmidt Place	Shreveport	Louisiana	71161	United States
0eb12669-a30e-489d-bcdb-acbe139efec1	7 Killdeer Street	Detroit	Michigan	48206	United States
59c1d2bd-d194-4620-bcad-5eb6bd00d4ed	77500 Hudson Court	Portland	Oregon	97271	United States
5d09ccb0-22ef-4b97-819b-b9a24f7cd829	98598 Hermina Street	Washington	District of Columbia	20010	United States
b961e5fb-de8b-4ba9-b4f4-a5ec1d2cccb4	196 Londonderry Park	Denver	Colorado	80241	United States
b9d13a98-73a7-4a05-bd48-fc43039b8ce7	8 Monument Circle	Orlando	Florida	32830	United States
5adaa13e-0e89-4db7-9d9d-252a005d7866	4791 Laurel Lane	Sacramento	California	94280	United States
7a2f92ac-bbdf-41e6-a92c-4213f0d535c8	3901 Gina Place	Memphis	Tennessee	38114	United States
ebd63247-d828-484d-8ec5-33de1ae7e0d6	6264 Shasta Pass	El Paso	Texas	88553	United States
f390db3d-e7c6-4526-97cc-d40376034464	5378 Jenna Drive	Rochester	New York	14639	United States
399d5008-6601-4e18-a5c4-108d0d67ef3d	476 Carberry Pass	Oklahoma City	Oklahoma	73152	United States
cbf93c29-e7fd-45e4-becc-ef4917f58e98	9 Northwestern Junction	Riverside	California	92505	United States
e388488f-955f-44e2-9fa1-ddd581edc42b	6569 Stone Corner Alley	Meridian	Mississippi	39305	United States
589dd16a-2d34-47f1-ad27-86859df188e2	3651 Main Road	Houston	Texas	77201	United States
bf3ecedb-2e36-4a22-9834-04bd13370f95	33389 Vahlen Junction	Kansas City	Kansas	66160	United States
1754742a-c5a6-452a-8aac-98057daa125c	07 Upham Crossing	York	Pennsylvania	17405	United States
418c4584-8e62-480e-b5ac-0ba85513245f	6376 Meadow Vale Parkway	Atlanta	Georgia	30311	United States
8c6a16f3-8bd9-4cbc-a5ce-83c0704b6f10	329 West Road	Shawnee Mission	Kansas	66286	United States
79814ef9-d7e8-4ad6-8843-1dced5fe21a6	94 Lerdahl Street	Philadelphia	Pennsylvania	19160	United States
36153999-9f9b-4542-84cd-f85e3845a8aa	13984 Schmedeman Road	Dayton	Ohio	45419	United States
9938045e-a4f1-4411-aea7-c3e2fc31dca3	086 Bellgrove Court	Philadelphia	Pennsylvania	19160	United States
01aa995c-b37c-4153-bb03-6d5fb9e735ed	537 Donald Court	Lincoln	Nebraska	68505	United States
8b6b2d68-acb0-4548-968d-a794527f82ab	28637 Arapahoe Hill	Riverside	California	92519	United States
7399e3f9-60ac-40eb-8b4e-a7df204b6357	29 Elgar Center	Washington	District of Columbia	20525	United States
e24a6187-898f-4c3b-a760-52158e624fbb	85 Reindahl Park	Salt Lake City	Utah	84120	United States
f29f8db5-6a37-4be9-a0d1-0e3b5318ebb2	44 Vidon Trail	Scottsdale	Arizona	85255	United States
463e4373-6dce-49a4-a56e-b5fc4118f597	27935 Lunder Junction	Lubbock	Texas	79415	United States
e35c9ee0-237f-4f95-b633-ce3438efb975	28165 Sutteridge Point	San Francisco	California	94147	United States
bdd5a9d1-5093-4b50-b7bb-721eeb7c53e7	2089 Longview Center	Lakeland	Florida	33805	United States
7facb54f-3c80-4105-8601-965a070b7eae	1 Sauthoff Street	Saint Louis	Missouri	63110	United States
b61bb35d-2001-461f-b510-f6224e8919c0	5510 Mayfield Circle	Fort Worth	Texas	76162	United States
4efa6257-403c-49f4-b754-4b4736f5025b	0343 Green Ridge Junction	Richmond	Virginia	23203	United States
ddccd996-8664-43b4-b9f4-0e779043cb27	62 Grim Alley	Dayton	Ohio	45426	United States
a56a43a6-193f-422f-a8b7-b9f1999a10af	2859 Barby Place	New Haven	Connecticut	06505	United States
7741bc47-e615-4381-9a66-828a38b36774	3706 Lighthouse Bay Junction	Tampa	Florida	33673	United States
c692c60d-18de-4671-8ebd-e7851bf35740	1 Homewood Lane	Jamaica	New York	11436	United States
35989888-787f-411f-aead-70c56b0127a8	7053 Barnett Terrace	Baltimore	Maryland	21229	United States
1b394d10-f852-4c91-af32-33e2086e7edc	0587 Arkansas Circle	Saint Augustine	Florida	32092	United States
40dd29f5-a64a-4d24-9668-394b01a3cdf8	14290 Melvin Street	Tucson	Arizona	85732	United States
2d083a00-c5c7-405e-b3d4-b8afa263f183	203 Spenser Hill	Monticello	Minnesota	55585	United States
8e46391b-58c9-48c5-ba4e-60f964a5e622	7 Becker Point	Louisville	Kentucky	40250	United States
ecde5b98-e199-4ff5-bef4-d54611e31cca	7 Morningstar Avenue	York	Pennsylvania	17405	United States
43436e77-dd23-421b-a33a-773c0fe3a5a9	0280 Linden Pass	Peoria	Illinois	61656	United States
98ca1501-52c1-4ebd-9503-64706d3f4630	29627 Nelson Center	New York City	New York	10014	United States
0f252e07-decc-4e22-8071-c0706aad3e2d	3230 Logan Court	Fresno	California	93715	United States
cd52d112-5920-4df0-a2a2-b7c169a6c757	06 Holmberg Point	Jefferson City	Missouri	65105	United States
57074a67-625a-442d-8ff7-af998463034b	6 Briar Crest Pass	Los Angeles	California	90076	United States
